{"version": 0.6, "generator": "Overpass API 0.7.62.5 1bd436f1", "osm3s": {"timestamp_osm_base": "2025-04-14T15:35:30Z", "copyright": "The data included in this document is from www.openstreetmap.org. The data is made available under ODbL."}, "elements": [{"type": "node", "id": 391580349, "lat": 41.7234098, "lon": 44.7151069}, {"type": "node", "id": 391580382, "lat": 41.7239983, "lon": 44.7150031}, {"type": "node", "id": 391580384, "lat": 41.7240306, "lon": 44.7153313}, {"type": "node", "id": 391580386, "lat": 41.723442, "lon": 44.7154351}, {"type": "node", "id": 639359872, "lat": 41.7109353, "lon": 44.7649692, "tags": {"amenity": "clinic", "name": "My Family Clinic"}}, {"type": "node", "id": 644600696, "lat": 41.7237273, "lon": 44.7237659, "tags": {"addr:housenumber": "85", "addr:street": "\u10d5\u10d0\u10df\u10d0-\u10e4\u10e8\u10d0\u10d5\u10d4\u10da\u10d0\u10e1 \u10d2\u10d0\u10db\u10d6\u10d8\u10e0\u10d8", "amenity": "clinic", "check_date": "2023-09-16", "healthcare": "clinic", "name": "\u10d9\u10da\u10d8\u10dc\u10d8\u10d9\u10d0 \u10db\u10d4\u10d3\u10d8\u10e1\u10dd\u10dc\u10d8", "name:en": "Medison Clinic", "name:ka": "\u10d9\u10da\u10d8\u10dc\u10d8\u10d9\u10d0 \u10db\u10d4\u10d3\u10d8\u10e1\u10dd\u10dc\u10d8"}}, {"type": "node", "id": 768584539, "lat": 41.7724726, "lon": 44.7752587}, {"type": "node", "id": 768584540, "lat": 41.7724288, "lon": 44.775424}, {"type": "node", "id": 768584541, "lat": 41.772934, "lon": 44.7756624}, {"type": "node", "id": 768584542, "lat": 41.7729777, "lon": 44.7755165}, {"type": "node", "id": 768584548, "lat": 41.7732046, "lon": 44.7759949}, {"type": "node", "id": 772543131, "lat": 41.7622849, "lon": 44.7739531, "tags": {"amenity": "clinic", "name": "\u10e1\u10d0\u10db\u10d9\u10e3\u10e0\u10dc\u10d0\u10da\u10dd \u10de\u10e0\u10dd\u10e4\u10d8\u10da\u10d0\u10e5\u10e2\u10d8\u10d9\u10e3\u10e0\u10d8 \u10ea\u10d4\u10dc\u10e2\u10e0\u10d8 #3", "name:en": "Medical prophylactic centre #3", "name:ru": "\u041b\u0435\u0447\u0435\u0431\u043d\u043e-\u043f\u0440\u043e\u0444\u0438\u043b\u0430\u043a\u0442\u0438\u0447\u0435\u0441\u043a\u0438\u0439 \u0446\u0435\u043d\u0442\u0440 \u21163"}}, {"type": "node", "id": 1737227246, "lat": 41.7266339, "lon": 44.7662179, "tags": {"addr:housenumber": "9", "addr:postcode": "0160", "addr:street": "\u10d0\u10da\u10d4\u10e5\u10e1\u10d0\u10dc\u10d3\u10e0\u10d4 \u10e7\u10d0\u10d6\u10d1\u10d4\u10d2\u10d8\u10e1 \u10d2\u10d0\u10db\u10d6\u10d8\u10e0\u10d8", "amenity": "clinic", "check_date": "2024-03-01", "email": "info@mrcheveli.com", "name": "\u10db\u10e0\u10e9\u10d4\u10d5\u10d4\u10da\u10d8", "name:en": "Mrcheveli", "operator": "European Limbach Diagnostic Group", "phone": "+995 32 2370071", "website": "https://www.mrcheveli.com/"}}, {"type": "node", "id": 2012043141, "lat": 41.7947046, "lon": 44.8184989}, {"type": "node", "id": 2012043225, "lat": 41.7948958, "lon": 44.8189432}, {"type": "node", "id": 2012043228, "lat": 41.7946086, "lon": 44.8186908}, {"type": "node", "id": 2012043233, "lat": 41.7945962, "lon": 44.8187159}, {"type": "node", "id": 2012043236, "lat": 41.7945726, "lon": 44.8183815}, {"type": "node", "id": 2012043263, "lat": 41.7948224, "lon": 44.8186947}, {"type": "node", "id": 2012043513, "lat": 41.7944774, "lon": 44.8185741}, {"type": "node", "id": 2012043574, "lat": 41.7947413, "lon": 44.818845}, {"type": "node", "id": 2012043632, "lat": 41.7948519, "lon": 44.8186351}, {"type": "node", "id": 2012043770, "lat": 41.7946734, "lon": 44.8185621}, {"type": "node", "id": 2012043859, "lat": 41.7947549, "lon": 44.8188177}, {"type": "node", "id": 2012043873, "lat": 41.7949882, "lon": 44.8187565}, {"type": "node", "id": 2034584301, "lat": 41.7750356, "lon": 44.7759274, "tags": {"addr:city": "\u10d7\u10d1\u10d8\u10da\u10d8\u10e1\u10d8", "addr:country": "GE", "addr:housenumber": "5", "addr:postcode": "0159", "addr:street": "\u10da\u10e3\u10d1\u10da\u10d8\u10d0\u10dc\u10d0\u10e1 \u10e5\u10e3\u10e9\u10d0", "amenity": "clinic", "contact:facebook": "https://www.facebook.com/Hera2011/", "email": "hera.clinic@yahoo.com", "health_facility:type": "clinic", "health_specialty:gynaecology": "main", "healthcare": "clinic", "medical_system:western": "yes", "name": "\u10f0\u10d4\u10e0\u10d0-2011", "name:en": "Hera-2011", "name:ka": "\u10f0\u10d4\u10e0\u10d0-2011", "name:ru": "\u0413\u0435\u0440\u0430-2011", "official_name": "\u10f0\u10d4\u10e0\u10d0 2011", "provided_for:female": "yes", "website": "https://www.hera2011.ge/"}}, {"type": "node", "id": 2323016634, "lat": 41.6899974, "lon": 44.829208}, {"type": "node", "id": 2330506440, "lat": 41.7084082, "lon": 44.7684231}, {"type": "node", "id": 2330506515, "lat": 41.7081702, "lon": 44.7683855}, {"type": "node", "id": 2891332691, "lat": 41.7063908, "lon": 44.7901368, "tags": {"addr:housenumber": "18", "addr:street": "\u10da\u10d4\u10dd \u10d9\u10d8\u10d0\u10e9\u10d4\u10da\u10d8\u10e1 \u10e5\u10e3\u10e9\u10d0 (Leo Kiacheli Street)", "amenity": "clinic", "check_date": "2023-10-11", "healthcare": "clinic", "name": "\u10db\u10d4\u10d3\u10e1\u10d8", "name:en": "Medsi", "name:ka": "\u10db\u10d4\u10d3\u10e1\u10d8", "wheelchair": "no"}}, {"type": "node", "id": 3130956693, "lat": 41.7219004, "lon": 44.7314459, "tags": {"addr:housenumber": "16", "addr:street": "\u10de. \u10e5\u10d0\u10d5\u10d7\u10d0\u10e0\u10d0\u10eb\u10d8\u10e1 \u10e5\u10e3\u10e9\u10d0", "amenity": "clinic", "man_made": "antenna", "name": "EVEX \u10d3\u10d8\u10d0\u10d2\u10dc\u10dd\u10e1\u10e2\u10d8\u10d9\u10e3\u10e0\u10d8 \u10ea\u10d4\u10dc\u10e2\u10e0\u10d8", "name:en": "EVEX Diagnostic Centre", "operator": "Evex", "website": "https://evexhospitals.ge/"}}, {"type": "node", "id": 4045579294, "lat": 41.7208182, "lon": 44.759579, "tags": {"addr:city": "\u10d7\u10d1\u10d8\u10da\u10d8\u10e1\u10d8", "addr:country": "GE", "amenity": "clinic", "healthcare": "clinic", "internet_access": "wlan", "name": "\u10d7\u10d5\u10d0\u10da\u10d8\u10e1 \u10d9\u10da\u10d8\u10dc\u10d8\u10d9\u10d0 \u10d3\u10d0\u10d5\u10d8\u10dc\u10e9\u10d8", "phone": "+995 322 903 503"}}, {"type": "node", "id": 4117004991, "lat": 41.7102063, "lon": 44.7574536, "tags": {"amenity": "clinic", "check_date": "2024-05-17", "contact:mobile": "+995 577 90 91 32", "healthcare": "clinic", "healthcare:speciality": "plastic_surgeon;dermatology;cosmetic", "name": "\u10e5\u10d0\u10da\u10d8 \u10d3\u10d0 \u10ef\u10d0\u10dc\u10db\u10e0\u10d7\u10d4\u10da\u10dd\u10d1\u10d0", "name:en": "Woman and Health", "opening_hours": "Mo-Sa 10:00-18:00", "website": "http://www.womanhealth.ge"}}, {"type": "node", "id": 4132513490, "lat": 41.7081895, "lon": 44.768166}, {"type": "node", "id": 4132513491, "lat": 41.7084275, "lon": 44.7682036}, {"type": "node", "id": 4259617089, "lat": 41.7055303, "lon": 44.8513639, "tags": {"amenity": "clinic", "check_date": "2024-04-14", "name": "\u10dc\u10e3\u10db\u10d0 \u10d3\u10d4\u10dc\u10e2\u10d8"}}, {"type": "node", "id": 4331160116, "lat": 41.7254377, "lon": 44.7479016, "tags": {"addr:street": "\u10d0\u10dc\u10d0 \u10d0\u10dc\u10e2\u10dd\u10dc\u10dd\u10d5\u10e1\u10d9\u10d0\u10d8\u10d0\u10e1 \u10e5\u10e3\u10e9\u10d0 (Ana Antonovskaia St)", "amenity": "clinic", "check_date": "2023-08-19", "description": "Laboratory 8:30-16:00; 8:30-14:00", "name": "Evex", "opening_hours": "Mo-Fr 09:00-20:00; Sa-Su 09:00-16:00", "operator": "Evex", "phone": "2550505", "website": "https://evex.ge"}}, {"type": "node", "id": 4366125797, "lat": 41.7321343, "lon": 44.7852624, "tags": {"amenity": "clinic", "check_date": "2024-08-13", "name": "\u10db\u10d4\u10d3\u10d8", "name:en": "Medi", "name:ka": "\u10db\u10d4\u10d3\u10d8"}}, {"type": "node", "id": 4378174790, "lat": 41.6719389, "lon": 44.8677477, "tags": {"addr:housenumber": "153 a", "addr:street": "\u10d1. \u10ee\u10db\u10d4\u10da\u10dc\u10d8\u10ea\u10d9\u10d8\u10e1 \u10e5\u10e3\u10e9\u10d0", "amenity": "clinic", "name:ru": "Aversi Clinic"}}, {"type": "node", "id": 4427869274, "lat": 41.7250109, "lon": 44.7639852, "tags": {"addr:city": "\u10d7\u10d1\u10d8\u10da\u10d8\u10e1\u10d8", "addr:country": "GE", "addr:housenumber": "10\u10d0", "addr:street": "\u10e2\u10d0\u10e8\u10d9\u10d4\u10dc\u10e2\u10d8\u10e1 \u10e5\u10e3\u10e9\u10d0", "amenity": "clinic", "contact:email": "imunreception@gmail.com", "contact:facebook": "%E1%83%9E%E1%83%A0%E1%83%94%E1%83%95%E1%83%94%E1%83%9C%E1%83%AA%E1%83%98%E1%83%A3%E1%83%9A%E1%83%98-%E1%83%9B%E1%83%94%E1%83%93%E1%83%98%E1%83%AA%E1%83%98%E1%83%9C%E1%83%98%E1%83%A1%E1%83%90-%E1%83%93%E1%83%90-%E1%83%98%E1%83%9B", "contact:phone": "+995 32 231 22 78", "healthcare": "clinic", "name": "\u10de\u10e0\u10d4\u10d5\u10d4\u10dc\u10ea\u10d8\u10e3\u10da\u10d8 \u10db\u10d4\u10d3\u10d8\u10ea\u10d8\u10dc\u10d8\u10e1 \u10d3\u10d0 \u10d8\u10db\u10e3\u10dc\u10d8\u10d6\u10d0\u10ea\u10d8\u10d8\u10e1 \u10ea\u10d4\u10dc\u10e2\u10e0\u10d8 \u10ea\u10d4\u10dc\u10e2\u10e0\u10d8", "name:en": "Immunization Center", "name:fr": "Centre de vaccination", "name:ka": "\u10de\u10e0\u10d4\u10d5\u10d4\u10dc\u10ea\u10d8\u10e3\u10da\u10d8 \u10db\u10d4\u10d3\u10d8\u10ea\u10d8\u10dc\u10d8\u10e1 \u10d3\u10d0 \u10d8\u10db\u10e3\u10dc\u10d8\u10d6\u10d0\u10ea\u10d8\u10d8\u10e1 \u10ea\u10d4\u10dc\u10e2\u10e0\u10d8 \u10ea\u10d4\u10dc\u10e2\u10e0\u10d8", "official_name": "Center of Immunization and Prevention", "opening_hours": "Mo-Fr 10:00-17:00 open \"Other vaccinations\"; Mo-Su 00:00-21:00 open \"Urgent vaccination against rabies and tetanus\"; Mo-Fr 10:15-18:00 open \"Medical certificates \""}}, {"type": "node", "id": 4448934893, "lat": 41.7236431, "lon": 44.7732173, "tags": {"addr:housenumber": "17", "addr:street": "\u10de\u10d4\u10d9\u10d8\u10dc\u10d8\u10e1 \u10d2\u10d0\u10db\u10d6\u10d8\u10e0\u10d8", "amenity": "clinic", "name": "Helio Dent"}}, {"type": "node", "id": 4518639242, "lat": 41.7252912, "lon": 44.794746, "tags": {"addr:city": "\u10d7\u10d1\u10d8\u10da\u10d8\u10e1\u10d8", "addr:housenumber": "13", "addr:postcode": "0112", "addr:street": "\u10d7\u10d4\u10d5\u10d3\u10dd\u10e0\u10d4 \u10db\u10e6\u10d5\u10d3\u10da\u10d8\u10e1 \u10e5\u10e3\u10e9\u10d0", "amenity": "clinic", "contact:facebook": "https://www.facebook.com/ToduaClinic", "contact:phone": "+995 32 257 57 57", "name": "\u10d7\u10dd\u10d3\u10e3\u10d0\u10e1 \u10d9\u10da\u10d8\u10dc\u10d8\u10d9\u10d0", "name:en": "Todua Clinic", "name:ka": "\u10d7\u10dd\u10d3\u10e3\u10d0\u10e1 \u10d9\u10da\u10d8\u10dc\u10d8\u10d9\u10d0", "name:ru": "\u041a\u043b\u0438\u043d\u0438\u043a\u0430 \u0422\u043e\u0434\u0443\u0430", "official_name:en": "Research Institute of Clinical Medicine, Todua Clinic", "official_name:ka": "\u10d9\u10da\u10d8\u10dc\u10d8\u10d9\u10e3\u10e0\u10d8 \u10db\u10d4\u10d3\u10d8\u10ea\u10d8\u10dc\u10d8\u10e1 \u10e1\u10d0\u10db\u10d4\u10ea\u10dc\u10d8\u10d4\u10e0\u10dd-\u10d9\u10d5\u10da\u10d4\u10d5\u10d8\u10d7\u10d8 \u10d8\u10dc\u10e1\u10e2\u10d8\u10e2\u10e3\u10e2\u10d8, \u10d7\u10dd\u10d3\u10e3\u10d0\u10e1 \u10d9\u10da\u10d8\u10dc\u10d8\u10d9\u10d0", "official_name:ru": "\u041d\u0430\u0443\u0447\u043d\u043e-\u0418\u0441\u0441\u043b\u0435\u0434\u043e\u0432\u0430\u0442\u0435\u043b\u044c\u0441\u043a\u0438\u0439 \u0418\u043d\u0441\u0442\u0438\u0442\u0443\u0442 \u041a\u043b\u0438\u043d\u0438\u0447\u0435\u0441\u043a\u043e\u0439 \u041c\u0435\u0434\u0438\u0446\u0438\u043d\u044b \u0438\u043c\u0435\u043d\u0438 \u0430\u043a\u0430\u0434\u0435\u043c\u0438\u043a\u0430 \u0422\u043e\u0434\u0443\u0430", "old_name:ru": "\u0416/\u0414 \u0411\u043e\u043b\u044c\u043d\u0438\u0446\u0430", "website": "https://toduaclinic.ge/"}}, {"type": "node", "id": 4542839692, "lat": 41.7640333, "lon": 44.7583482, "tags": {"amenity": "clinic", "name": "\u10e4\u10e1\u10d8\u10e5\u10d8\u10d0\u10e2\u10e0\u10d8\u10e3\u10da\u10d8", "name:ka": "\u10e4\u10e1\u10d8\u10e5\u10d8\u10d0\u10e2\u10e0\u10d8\u10e3\u10da\u10d8"}}, {"type": "node", "id": 4542972391, "lat": 41.7310301, "lon": 44.7859794, "tags": {"amenity": "clinic", "check_date": "2024-06-19"}}, {"type": "node", "id": 4542994195, "lat": 41.7474703, "lon": 44.7773211, "tags": {"amenity": "clinic", "check_date": "2023-09-26", "healthcare": "clinic", "name": "\u10db\u10d4\u10d3\u10d9\u10d0\u10de\u10d8\u10e2\u10d0\u10da \u10d9\u10da\u10d8\u10dc\u10d8\u10d9\u10d0", "name:en": "MedCapital polyclinic", "name:ka": "\u10db\u10d4\u10d3\u10d9\u10d0\u10de\u10d8\u10e2\u10d0\u10da \u10d9\u10da\u10d8\u10dc\u10d8\u10d9\u10d0", "opening_hours": "Mo-Fr 09:00-17:30; Sa 10:00-14:00"}}, {"type": "node", "id": 4609004620, "lat": 41.7740444, "lon": 44.7751812}, {"type": "node", "id": 4609004623, "lat": 41.7742286, "lon": 44.7751422}, {"type": "node", "id": 4609004624, "lat": 41.7742285, "lon": 44.775123}, {"type": "node", "id": 4609004625, "lat": 41.774177, "lon": 44.7751232}, {"type": "node", "id": 4609004626, "lat": 41.7741769, "lon": 44.7750974}, {"type": "node", "id": 4609004627, "lat": 41.7741454, "lon": 44.7750975}, {"type": "node", "id": 4609004628, "lat": 41.7741154, "lon": 44.7751096}, {"type": "node", "id": 4609004629, "lat": 41.7740876, "lon": 44.7751398}, {"type": "node", "id": 4609004630, "lat": 41.7740808, "lon": 44.7751286}, {"type": "node", "id": 4609004631, "lat": 41.7740593, "lon": 44.7751519}, {"type": "node", "id": 4609004633, "lat": 41.7740193, "lon": 44.775234}, {"type": "node", "id": 4609004634, "lat": 41.7740214, "lon": 44.7753449}, {"type": "node", "id": 4609004635, "lat": 41.7740439, "lon": 44.7754358}, {"type": "node", "id": 4609004636, "lat": 41.7740705, "lon": 44.7754357}, {"type": "node", "id": 4609004643, "lat": 41.7740706, "lon": 44.7754723}, {"type": "node", "id": 4609004644, "lat": 41.7742288, "lon": 44.7754718}, {"type": "node", "id": 4609004645, "lat": 41.774229, "lon": 44.7755891}, {"type": "node", "id": 4609004646, "lat": 41.7743109, "lon": 44.7755889}, {"type": "node", "id": 4609004647, "lat": 41.7743144, "lon": 44.7751427}, {"type": "node", "id": 4609009979, "lat": 41.7754422, "lon": 44.7761273, "tags": {"addr:city": "\u10d7\u10d1\u10d8\u10da\u10d8\u10e1\u10d8", "addr:country": "GE", "addr:housenumber": "5", "addr:postcode": "0159", "addr:street": "\u10da\u10e3\u10d1\u10da\u10d8\u10d0\u10dc\u10d0\u10e1 \u10e5\u10e3\u10e9\u10d0", "amenity": "clinic", "contact:phone": "+995 32 295 06 26", "health_facility:type": "clinic", "health_specialty:dermatology": "main", "health_specialty:venereology": "main", "healthcare": "clinic", "medical_system:western": "yes", "name": "\u10d9\u10d0\u10dc\u10d8\u10e1\u10d0 \u10d3\u10d0 \u10d5\u10d4\u10dc\u10e1\u10dc\u10d4\u10e3\u10da\u10d4\u10d1\u10d0\u10d7\u10d0 \u10e1/\u10d9 \u10d4\u10e0\u10dd\u10d5\u10dc\u10e3\u10da\u10d8 \u10ea\u10d4\u10dc\u10e2\u10e0\u10d8", "name:en": "National Center Of Dermatology And Venereology", "name:ka": "\u10d9\u10d0\u10dc\u10d8\u10e1\u10d0 \u10d3\u10d0 \u10d5\u10d4\u10dc\u10e1\u10dc\u10d4\u10e3\u10da\u10d4\u10d1\u10d0\u10d7\u10d0 \u10e1/\u10d9 \u10d4\u10e0\u10dd\u10d5\u10dc\u10e3\u10da\u10d8 \u10ea\u10d4\u10dc\u10e2\u10e0\u10d8", "name:ru": "\u041d\u0430\u0446\u0438\u043e\u043d\u0430\u043b\u044c\u043d\u044b\u0439 \u0446\u0435\u043d\u0442\u0440 \u0434\u0435\u0440\u043c\u0430\u0442\u043e\u043b\u043e\u0433\u0438\u0438 \u0438 \u0432\u0435\u043d\u0435\u0440\u043e\u043b\u043e\u0433\u0438\u0438", "provided_for:female": "yes", "provided_for:male": "yes"}}, {"type": "node", "id": 4621712499, "lat": 41.7225557, "lon": 44.7292095, "tags": {"amenity": "clinic", "healthcare": "clinic", "name": "\u10d3\u10d4\u10db\u10d0", "name:en": "Dema", "name:ka": "\u10d3\u10d4\u10db\u10d0"}}, {"type": "node", "id": 4621712796, "lat": 41.7218021, "lon": 44.7300588, "tags": {"addr:city": "\u10d7\u10d1\u10d8\u10da\u10d8\u10e1\u10d8", "addr:housenumber": "2", "addr:street": "\u10db\u10d0\u10e0\u10d8\u10ef\u10d0\u10dc\u10d8\u10e1 \u10e5\u10e3\u10e9\u10d0", "amenity": "clinic", "check_date": "2024-06-19", "description": "LLC Med Investment (Marijani Branch)", "healthcare": "clinic", "name": "\u10d3\u10d0\u10d5\u10d8\u10d7 \u10e2\u10d0\u10e2\u10d8\u10e8\u10d5\u10d8\u10da\u10d8\u10e1 \u10e1\u10d0\u10db\u10d4\u10d3\u10d8\u10ea\u10d8\u10dc\u10dd \u10ea\u10d4\u10dc\u10e2\u10e0\u10d8", "name:en": "David Tatishvili Medical Center", "name:ka": "\u10d3\u10d0\u10d5\u10d8\u10d7 \u10e2\u10d0\u10e2\u10d8\u10e8\u10d5\u10d8\u10da\u10d8\u10e1 \u10e1\u10d0\u10db\u10d4\u10d3\u10d8\u10ea\u10d8\u10dc\u10dd \u10ea\u10d4\u10dc\u10e2\u10e0\u10d8", "phone": "+995 322 18 61 86"}}, {"type": "node", "id": 4621844889, "lat": 41.7232077, "lon": 44.7300047, "tags": {"amenity": "clinic", "check_date": "2024-06-19", "name": "\u10dc\u10d8\u10e3\u10db\u10d4\u10d3\u10d8", "name:en": "Newmed"}}, {"type": "node", "id": 4642266391, "lat": 41.6696958, "lon": 44.8905828, "tags": {"amenity": "clinic"}}, {"type": "node", "id": 4671427693, "lat": 41.7210397, "lon": 44.7696139, "tags": {"amenity": "clinic", "healthcare": "clinic", "name:en": "Neo-Neo"}}, {"type": "node", "id": 4716098889, "lat": 41.6917144, "lon": 44.8271464, "tags": {"amenity": "clinic", "healthcare": "clinic", "name": "\u10d0\u10da\u10d4\u10e0\u10d2\u10d8\u10d8\u10e1\u10d0 \u10d3\u10d0 \u10d8\u10db\u10e3\u10dc\u10dd\u10da\u10dd\u10d2\u10d8\u10d8\u10e1 \u10ea\u10d4\u10dc\u10e2\u10e0\u10d8", "name:en": "Center of Allergy & Immunology", "name:ka": "\u10d0\u10da\u10d4\u10e0\u10d2\u10d8\u10d8\u10e1\u10d0 \u10d3\u10d0 \u10d8\u10db\u10e3\u10dc\u10dd\u10da\u10dd\u10d2\u10d8\u10d8\u10e1 \u10ea\u10d4\u10dc\u10e2\u10e0\u10d8"}}, {"type": "node", "id": 4718071925, "lat": 41.6918213, "lon": 44.8276839}, {"type": "node", "id": 4718071926, "lat": 41.6917163, "lon": 44.8276581}, {"type": "node", "id": 4718071927, "lat": 41.6917127, "lon": 44.8276845}, {"type": "node", "id": 4718071928, "lat": 41.6916207, "lon": 44.8276619}, {"type": "node", "id": 4718071929, "lat": 41.6916061, "lon": 44.8277688}, {"type": "node", "id": 4718071930, "lat": 41.691702, "lon": 44.8277923}, {"type": "node", "id": 4718071931, "lat": 41.6916991, "lon": 44.8278135}, {"type": "node", "id": 4718071932, "lat": 41.6918017, "lon": 44.8278387}, {"type": "node", "id": 4718071933, "lat": 41.6918039, "lon": 44.8278222}, {"type": "node", "id": 4718071934, "lat": 41.6918986, "lon": 44.8278454}, {"type": "node", "id": 4718071935, "lat": 41.6919142, "lon": 44.8277315}, {"type": "node", "id": 4846011522, "lat": 41.7252361, "lon": 44.7456982, "tags": {"amenity": "clinic", "healthcare": "clinic", "name": "\u10db\u10d4\u10d3\u10d8", "name:en": "medi", "phone": "322788888", "website": "https://medi.ge"}}, {"type": "node", "id": 4920534422, "lat": 41.6846712, "lon": 44.8401205, "tags": {"amenity": "clinic", "name": "\u10d0\u10d5\u10d4\u10e0\u10e1\u10d8\u10e1 \u10d9\u10da\u10d8\u10dc\u10d8\u10d9\u10d0", "name:en": "Aversi clinic", "name:ka": "\u10d0\u10d5\u10d4\u10e0\u10e1\u10d8\u10e1 \u10d9\u10da\u10d8\u10dc\u10d8\u10d9\u10d0"}}, {"type": "node", "id": 4927943722, "lat": 41.7242435, "lon": 44.7623799, "tags": {"amenity": "clinic", "name": "\u10e1\u10d8 \u10d4\u10e1 \u10d0\u10d8", "name:en": "CSI", "name:ka": "\u10e1\u10d8 \u10d4\u10e1 \u10d0\u10d8"}}, {"type": "node", "id": 4941560121, "lat": 41.6807073, "lon": 44.8385502, "tags": {"amenity": "clinic", "healthcare": "clinic", "name:en": "L.T.D. Tbilisi #4 Family Medicine Center"}}, {"type": "node", "id": 4988571121, "lat": 41.7752467, "lon": 44.7760288, "tags": {"addr:city": "\u10d7\u10d1\u10d8\u10da\u10d8\u10e1\u10d8", "addr:housenumber": "5", "addr:street": "\u10da\u10e3\u10d1\u10da\u10d8\u10d0\u10dc\u10d0\u10e1 \u10e5\u10e3\u10e9\u10d0", "amenity": "clinic", "contact:phone": "+995 32 251 68 00", "contact:website": "https://ico.ge/", "health_facility:type": "clinic", "health_specialty:oncology": "main", "healthcare": "clinic", "medical_system:western": "yes", "name": "\u10d9\u10da\u10d8\u10dc\u10d8\u10d9\u10e3\u10e0\u10d8 \u10dd\u10dc\u10d9\u10dd\u10da\u10dd\u10d2\u10d8\u10d8\u10e1 \u10d8\u10dc\u10e1\u10e2\u10d8\u10e2\u10e3\u10e2\u10d8", "name:en": "Institute of Clinical Oncology", "name:ru": "\u0418\u043d\u0441\u0442\u0438\u0442\u0443\u0442 \u043a\u043b\u0438\u043d\u0438\u0447\u0435\u0441\u043a\u043e\u0439 \u043e\u043d\u043a\u043e\u043b\u043e\u0433\u0438\u0438", "opening_hours": "Mo-Sa 09:00-17:00; Su off", "provided_for:female": "yes", "provided_for:male": "yes"}}, {"type": "node", "id": 5105214095, "lat": 41.782719, "lon": 44.8260731, "tags": {"addr:city": "\u10d7\u10d1\u10d8\u10da\u10d8\u10e1\u10d8", "addr:country": "GE", "addr:housenumber": "27", "addr:street": "\u10d0\u10da\u10d4\u10d9\u10dd \u10d2\u10dd\u10d1\u10e0\u10dd\u10dc\u10d8\u10eb\u10d8\u10e1 \u10e5\u10e3\u10e9\u10d0", "amenity": "clinic", "email": "mukhiani@medison.ge", "healthcare": "clinic", "name": "\u10db\u10d4\u10d3\u10d8\u10e1\u10dd\u10dc \u10f0\u10dd\u10da\u10d3\u10d8\u10dc\u10d2\u10d8", "name:en": "Medison Holding", "name:ka": "\u10db\u10d4\u10d3\u10d8\u10e1\u10dd\u10dc \u10f0\u10dd\u10da\u10d3\u10d8\u10dc\u10d2\u10d8", "phone": "+995322470606"}}, {"type": "node", "id": 5166260925, "lat": 41.7921761, "lon": 44.7556204, "tags": {"addr:city": "\u10d7\u10d1\u10d8\u10da\u10d8\u10e1\u10d8", "addr:housenumber": "16", "addr:street": "\u10d8\u10dd\u10d0\u10dc\u10d4 \u10de\u10d4\u10e2\u10e0\u10d8\u10ec\u10d8\u10e1 \u10e5\u10e3\u10e9\u10d0", "amenity": "clinic", "brand": "Evex", "healthcare": "clinic", "healthcare:speciality": "general;paediatrics;gynaecology;otolaryngology;cardiology;angiology;endocrinology;dermatology;neurology;ophthalmology;oncology;gastroenterology;trauma;orthopaedics;rheumatology;urology;surgery", "name": "\u10d4\u10d5\u10d4\u10e5\u10e1\u10d8", "name:en": "Evex", "opening_hours": "Mo-Fr 09:00-20:00; Sa 09:00-16:00", "operator": "\u10d4\u10d5\u10d4\u10e5\u10e1\u10d8", "operator:type": "private", "phone": "+995 322 55 05 05", "website": "https://evex.ge/ka/network/didi-digmis-poliklinika/81/"}}, {"type": "node", "id": 5219218626, "lat": 41.7201087, "lon": 44.7133995, "tags": {"amenity": "clinic", "healthcare": "clinic", "name": "\u10d9\u10dd\u10dc\u10e1\u10d8\u10da\u10d8\u10e3\u10db \u10db\u10d4\u10d3\u10e3\u10da\u10d0", "name:en": "Consilium Medulla", "name:ka": "\u10d9\u10dd\u10dc\u10e1\u10d8\u10da\u10d8\u10e3\u10db \u10db\u10d4\u10d3\u10e3\u10da\u10d0", "website": "https://medconsilium.ge/"}}, {"type": "node", "id": 5251484731, "lat": 41.7299484, "lon": 44.758899, "tags": {"amenity": "clinic", "contact:phone": "+995 593 90 10 10", "email": "info@gsclinic.ge", "healthcare": "clinic", "name": "\u10e1\u10de\u10d0\u10e0\u10e2\u10d0\u10d9 \u10d2\u10d4\u10da\u10d0\u10e8\u10d5\u10d8\u10da\u10d8\u10e1 \u10d9\u10da\u10d8\u10dc\u10d8\u10d9\u10d0", "name:en": "Spartak Gelashvili Clinic", "name:ka": "\u10e1\u10de\u10d0\u10e0\u10e2\u10d0\u10d9 \u10d2\u10d4\u10da\u10d0\u10e8\u10d5\u10d8\u10da\u10d8\u10e1 \u10d9\u10da\u10d8\u10dc\u10d8\u10d9\u10d0", "opening_hours": "Mo-Fr 09:00-07:00; Sa 10:00-15:00", "website": "https://gsclinic.ge/"}}, {"type": "node", "id": 5348974922, "lat": 41.7473725, "lon": 44.7780768, "tags": {"addr:city": "\u10d7\u10d1\u10d8\u10da\u10d8\u10e1\u10d8", "addr:housenumber": "141a", "addr:postcode": "0119", "addr:street": "\u10d0\u10d9\u10d0\u10d9\u10d8 \u10ec\u10d4\u10e0\u10d4\u10d7\u10da\u10d8\u10e1 \u10d2\u10d0\u10db\u10d6\u10d8\u10e0\u10d8", "amenity": "clinic", "check_date": "2024-06-19", "healthcare": "clinic", "name": "\u10d4\u10d5\u10d4\u10e5\u10e1\u10d8 \u10de\u10dd\u10da\u10d8\u10d9\u10da\u10d8\u10dc\u10d8\u10d9\u10d0", "name:en": "Evex Polyclinic", "name:ka": "\u10d4\u10d5\u10d4\u10e5\u10e1\u10d8 \u10de\u10dd\u10da\u10d8\u10d9\u10da\u10d8\u10dc\u10d8\u10d9\u10d0", "opening_hours": "Mo-Fr 09:00-20:00, Su 09:00-16:00", "operator": "Evex", "phone": "0322550505", "website": "https://evexclinics.ge/ka/"}}, {"type": "node", "id": 5610900223, "lat": 41.736294, "lon": 44.737966, "tags": {"addr:housenumber": "4", "addr:street": "\u10da\u10d8\u10e1\u10d8\u10e1 \u10e2\u10d1\u10d8\u10e1 \u10db\u10d8\u10db\u10d3\u10d4\u10d1\u10d0\u10e0\u10d4 \u10e2\u10d4\u10e0\u10d8\u10e2\u10dd\u10e0\u10d8\u10d0", "amenity": "clinic", "contact:phone": "+995 32 243 01 00", "email": "Info@mmc.ge", "name": "\u10db\u10d0\u10e0\u10d3\u10d0\u10da\u10d4\u10d8\u10e8\u10d5\u10d8\u10da\u10d8\u10e1 \u10e3\u10dc\u10e0\u10d4\u10d3\u10d8\u10e1 \u10e2\u10d4\u10e5\u10dc\u10dd\u10da\u10dd\u10d2\u10d8\u10d8\u10e1\u10d0 \u10d3\u10d0 \u10d7\u10d4\u10e0\u10d0\u10de\u10d8\u10d8\u10e1 \u10d9\u10da\u10d8\u10dc\u10d8\u10d9\u10d0", "name:en": "Mardaleishvili Medical Center", "opening_hours": "Mo-Fr 09:00-16:30", "website": "http://Mmc.ge"}}, {"type": "node", "id": 5663359129, "lat": 41.7090382, "lon": 44.7675146, "tags": {"addr:housenumber": "2", "addr:street": "\u10d0\u10e0\u10d0\u10e7\u10d8\u10e8\u10d5\u10d8\u10da\u10d8\u10e1 \u10e5\u10e3\u10e9\u10d0", "amenity": "clinic", "check_date": "2024-04-13", "healthcare": "clinic", "name": "Enmedic", "name:en": "Enmedic", "website": "https://enmedic.ge/"}}, {"type": "node", "id": 5780996043, "lat": 41.7927982, "lon": 44.7594868, "tags": {"addr:housenumber": "11", "addr:street": "\u10d8\u10dd\u10d0\u10dc\u10d4 \u10de\u10d4\u10e2\u10e0\u10d8\u10ec\u10d8\u10e1 \u10e5\u10e3\u10e9\u10d0", "amenity": "clinic", "healthcare": "clinic"}}, {"type": "node", "id": 5999895586, "lat": 41.721339, "lon": 44.7624861, "tags": {"amenity": "clinic", "name": "\u10d9\u10da\u10d8\u10dc\u10d8\u10d9\u10d0 \u10ee\u10d4\u10e0\u10ee\u10d4\u10db\u10d0\u10da\u10d8"}}, {"type": "node", "id": 6022810386, "lat": 41.7088803, "lon": 44.765951, "tags": {"amenity": "clinic", "healthcare": "clinic", "name": "\u10d3\u10d0\u10d5\u10d8\u10d7 \u10d0\u10d1\u10e3\u10da\u10d0\u10eb\u10d8\u10e1 \u10e5\u10d0\u10e0\u10d7\u10e3\u10da-\u10d8\u10e2\u10d0\u10da\u10d8\u10e3\u10e0\u10d8 \u10d9\u10da\u10d8\u10dc\u10d8\u10d9\u10d0", "name:en": "David Abuladze Georgian-Italian Clinic"}}, {"type": "node", "id": 6257776785, "lat": 41.6896828, "lon": 44.8278544, "tags": {"addr:city": "\u10d7\u10d1\u10d8\u10da\u10d8\u10e1\u10d8", "addr:housenumber": "2", "addr:street": "\u10ec\u10d8\u10dc\u10d0\u10dc\u10d3\u10da\u10d8\u10e1 \u10e5\u10e3\u10e9\u10d0", "amenity": "clinic", "healthcare": "clinic", "name": "\u10e1\u10d4\u10e3 \u10d9\u10da\u10d8\u10dc\u10d8\u10d9\u10d0", "name:en": "SEU Clinic"}}, {"type": "node", "id": 6307909653, "lat": 41.701517, "lon": 44.8506939, "tags": {"direction": "140", "highway": "speed_camera", "maxspeed": "30"}}, {"type": "node", "id": 6488008085, "lat": 41.7727181, "lon": 44.8241441, "tags": {"amenity": "clinic", "name": "\u10d4\u10db\u10d4\u10e0\u10ef\u10d4\u10dc\u10e1\u10d8"}}, {"type": "node", "id": 6536506682, "lat": 41.6891442, "lon": 44.8703482}, {"type": "node", "id": 6536506683, "lat": 41.6889625, "lon": 44.8703194}, {"type": "node", "id": 6536506684, "lat": 41.6889942, "lon": 44.8699609}, {"type": "node", "id": 6536531585, "lat": 41.6891759, "lon": 44.8699897}, {"type": "node", "id": 6771160488, "lat": 41.7007727, "lon": 44.794942, "tags": {"amenity": "clinic", "name:en": "Family Doctor"}}, {"type": "node", "id": 6917178638, "lat": 41.7885113, "lon": 44.7435029, "tags": {"amenity": "clinic", "healthcare": "clinic", "name": "\u10e1\u10d0\u10dd\u10ef\u10d0\u10ee\u10dd \u10d9\u10da\u10d8\u10dc\u10d8\u10d9\u10d0", "opening_hours": "Mo-Fr 10:00-18:00; Sa 10:00-14:00; Su off"}}, {"type": "node", "id": 7211100885, "lat": 41.7289066, "lon": 44.7583788, "tags": {"addr:housenumber": "27b", "addr:postcode": "0160", "addr:street": "\u10d5\u10d0\u10df\u10d0-\u10e4\u10e8\u10d0\u10d5\u10d4\u10da\u10d0\u10e1 \u10d2\u10d0\u10db\u10d6\u10d8\u10e0\u10d8", "amenity": "clinic", "name": "\u10d0\u10d5\u10d4\u10e0\u10e1\u10d8\u10e1 \u10d9\u10da\u10d8\u10dc\u10d8\u10d9\u10d0", "name:en": "Aversi Clinic", "opening_hours": "Mo-Fr 09:00-21:00; Su 09:00-17:00; Sa 09:00-19:00", "website": "http://www.aversiclinic.ge/"}}, {"type": "node", "id": 7613263085, "lat": 41.6899726, "lon": 44.8279442, "tags": {"amenity": "clinic", "healthcare": "clinic", "name": "\u10d3\u10d0\u10d5\u10d8\u10d7 \u10db\u10d4\u10e2\u10e0\u10d4\u10d5\u10d4\u10da\u10d8\u10e1 \u10e1\u10d0\u10db\u10d4\u10d3\u10d8\u10ea\u10d8\u10dc\u10dd \u10ea\u10d4\u10dc\u10e2\u10e0\u10d8", "name:en": "David Metreveli Medical Centre", "name:ka": "\u10d3\u10d0\u10d5\u10d8\u10d7 \u10db\u10d4\u10e2\u10e0\u10d4\u10d5\u10d4\u10da\u10d8\u10e1 \u10e1\u10d0\u10db\u10d4\u10d3\u10d8\u10ea\u10d8\u10dc\u10dd \u10ea\u10d4\u10dc\u10e2\u10e0\u10d8", "name:ru": "\u041c\u0435\u0434\u0438\u0446\u0438\u043d\u0441\u043a\u0438\u0439 \u0446\u0435\u043d\u0442\u0440 \u0414\u0430\u0432\u0438\u0434\u0430 \u041c\u0435\u0442\u0440\u0435\u0432\u0435\u043b\u0438"}}, {"type": "node", "id": 7679458985, "lat": 41.7229212, "lon": 44.7326288, "tags": {"amenity": "clinic", "check_date": "2025-04-06", "name": "\u10d4\u10d5\u10d4\u10ec\u10e1\u10d8", "name:en": "Evex", "operator": "Evex", "website": "https://evexclinics.ge"}}, {"type": "node", "id": 7728278591, "lat": 41.7711692, "lon": 44.778335}, {"type": "node", "id": 7728278592, "lat": 41.7714036, "lon": 44.7783474}, {"type": "node", "id": 7728278593, "lat": 41.7714089, "lon": 44.7781646}, {"type": "node", "id": 7728278594, "lat": 41.7713673, "lon": 44.7781624}, {"type": "node", "id": 7728278595, "lat": 41.7713713, "lon": 44.7780275}, {"type": "node", "id": 7728278596, "lat": 41.7713028, "lon": 44.7780239}, {"type": "node", "id": 7728278597, "lat": 41.7713076, "lon": 44.7778603}, {"type": "node", "id": 7728278598, "lat": 41.7711833, "lon": 44.7778538}, {"type": "node", "id": 7888681818, "lat": 41.7743132, "lon": 44.7752936}, {"type": "node", "id": 7908107185, "lat": 41.7234779, "lon": 44.7572377, "tags": {"amenity": "clinic", "check_date": "2023-10-26", "name": "\u10d0\u10d9\u10d0\u10d3\u10d4\u10db\u10d8\u10d9\u10dd\u10e1 \u10d5\u10d0\u10ee\u10e2\u10d0\u10dc\u10d2 \u10d1\u10dd\u10ed\u10dd\u10e0\u10d8\u10e8\u10d5\u10d8\u10da\u10d8\u10e1 \u10e1\u10d0\u10db\u10d4\u10d3\u10d8\u10ea\u10d8\u10dc\u10dd \u10ea\u10d4\u10dc\u10e2\u10e0\u10d8", "name:en": "Academician Vakhtang Bochorishvili Medical Center", "name:ka": "\u10d0\u10d9\u10d0\u10d3\u10d4\u10db\u10d8\u10d9\u10dd\u10e1 \u10d5\u10d0\u10ee\u10e2\u10d0\u10dc\u10d2 \u10d1\u10dd\u10ed\u10dd\u10e0\u10d8\u10e8\u10d5\u10d8\u10da\u10d8\u10e1 \u10e1\u10d0\u10db\u10d4\u10d3\u10d8\u10ea\u10d8\u10dc\u10dd \u10ea\u10d4\u10dc\u10e2\u10e0\u10d8"}}, {"type": "node", "id": 7943415742, "lat": 41.7231649, "lon": 44.7643696, "tags": {"addr:city": "\u10d7\u10d1\u10d8\u10da\u10d8\u10e1\u10d8", "addr:housenumber": "20", "addr:postcode": "0150", "addr:street": "\u10db\u10d8\u10ee\u10d4\u10d8\u10da \u10d1\u10e3\u10e0\u10eb\u10d2\u10da\u10d0\u10e1 \u10e5\u10e3\u10e9\u10d0", "amenity": "clinic", "healthcare": "clinic", "healthcare:speciality": "gynaecology;endocrinology;radiology;abortion;fertility", "name": "\u10db\u10d4\u10d3\u10d8\u10e5\u10d4\u10d0", "name:en": "Medicare", "phone": "+995 322 37 07 63", "start_date": "2012", "website": "http://medicare-clinic.ge/"}}, {"type": "node", "id": 8179255889, "lat": 41.7209852, "lon": 44.7790414, "tags": {"amenity": "clinic", "healthcare": "clinic", "name": "Polyclinic", "name:ka": "\u10de\u10dd\u10da\u10d8\u10d9\u10da\u10d8\u10dc\u10d8\u10d9\u10d0"}}, {"type": "node", "id": 9139715081, "lat": 41.7062399, "lon": 44.7712278, "tags": {"amenity": "clinic", "healthcare": "clinic", "name": "Lima Medi"}}, {"type": "node", "id": 9176359217, "lat": 41.7136898, "lon": 44.7459408, "tags": {"amenity": "clinic", "healthcare": "clinic", "name": "\u10db\u10d0\u10e0\u10d3\u10d0\u10da\u10d4\u10d8\u10e8\u10d5\u10d8\u10da\u10d8\u10e1 \u10d3\u10d8\u10d0\u10d2\u10dc\u10dd\u10e1\u10e2\u10d8\u10d9\u10e3\u10e0\u10d8 \u10ea\u10d4\u10dc\u10e2\u10e0\u10d8", "name:en": "Mardaleishvili Medical Centre", "phone": "+995322430100", "website": "https://www.mmc.ge/"}}, {"type": "node", "id": 9734949061, "lat": 41.724745, "lon": 44.795076, "tags": {"addr:city": "\u10d7\u10d1\u10d8\u10da\u10d8\u10e1\u10d8", "addr:floor": "3", "addr:housenumber": "13", "addr:street": "\u10d7\u10d4\u10d5\u10d3\u10dd\u10e0\u10d4 \u10db\u10e6\u10d5\u10d3\u10da\u10d8\u10e1 \u10e5\u10e3\u10e9\u10d0", "amenity": "clinic", "contact:mobile": "+995 790 88 52 53", "contact:phone": "+995 32 235 64 56", "healthcare": "clinic", "name": "\u10db\u10d4\u10d7\u10d8\u10d9\u10da\u10d8\u10dc\u10d8\u10d9\u10d0", "name:en": "Meti Clinic", "name:ka": "\u10db\u10d4\u10d7\u10d8\u10d9\u10da\u10d8\u10dc\u10d8\u10d9\u10d0", "website": "https://www.meticlinic.ge/"}}, {"type": "node", "id": 9741285204, "lat": 41.7905048, "lon": 44.8173786, "tags": {"addr:city": "\u10d7\u10d1\u10d8\u10da\u10d8\u10e1\u10d8", "addr:housenumber": "1", "addr:street": "\u10d0\u10da\u10d4\u10d9\u10dd \u10d2\u10dd\u10d1\u10e0\u10dd\u10dc\u10d8\u10eb\u10d8\u10e1 \u10e5\u10e3\u10e9\u10d0", "amenity": "clinic", "healthcare": "clinic", "healthcare:speciality": "ophthalmology", "name": "\u10d0\u10ee\u10d0\u10da\u10d8 \u10db\u10d6\u10d4\u10e0\u10d0", "name:en": "Akhali Mzera", "website": "https://www.facebook.com/AkhaliMzeraEyeClinic/"}}, {"type": "node", "id": 9753816984, "lat": 41.6973695, "lon": 44.7045974, "tags": {"amenity": "clinic", "healthcare": "clinic"}}, {"type": "node", "id": 9759148888, "lat": 41.788671, "lon": 44.8187157, "tags": {"addr:city": "\u10d7\u10d1\u10d8\u10da\u10d8\u10e1\u10d8", "addr:housenumber": "10", "addr:street": "\u10d0\u10da\u10d4\u10d9\u10dd \u10d2\u10dd\u10d1\u10e0\u10dd\u10dc\u10d8\u10eb\u10d8\u10e1 \u10e5\u10e3\u10e9\u10d0", "amenity": "clinic", "contact:facebook": "https://www.facebook.com/MKmultiprofileclinic", "contact:phone": "+995322131650", "healthcare": "clinic", "name": "\u10db\u10d0\u10da\u10ee\u10d0\u10d6 \u10d9\u10d0\u10ea\u10d8\u10d0\u10e8\u10d5\u10d8\u10da\u10d8\u10e1 \u10db\u10e0\u10d0\u10d5\u10d0\u10da\u10de\u10e0\u10dd\u10e4\u10d8\u10da\u10e3\u10e0\u10d8 \u10d2\u10d0\u10d3\u10d0\u10e3\u10d3\u10d4\u10d1\u10d4\u10da\u10d8 \u10d3\u10d0\u10ee\u10db\u10d0\u10e0\u10d4\u10d1\u10d8\u10e1 \u10ea\u10d4\u10dc\u10e2\u10e0\u10d8", "name:en": "Malkhaz Katsiashvili Multi-profile Emergency Assistance Center", "opening_hours": "24/7"}}, {"type": "node", "id": 9778625501, "lat": 41.7734024, "lon": 44.7770106, "tags": {"addr:housenumber": "6", "addr:street": "\u10dc\u10d0\u10dc\u10dd \u10ef\u10d0\u10d5\u10d0\u10ee\u10d8\u10e8\u10d5\u10d8\u10da\u10d8\u10e1 \u10e5\u10e3\u10e9\u10d0", "amenity": "clinic", "contact:mobile": "+995 599 50 91 10", "health_facility:type": "clinic", "health_specialty:reproductive_medicine": "main", "healthcare": "clinic", "medical_system:western": "yes", "name": "\u10d6\u10e3\u10e0\u10d0\u10d1 \u10e1\u10d0\u10d1\u10d0\u10ee\u10e2\u10d0\u10e0\u10d0\u10e8\u10d5\u10d8\u10da\u10d8 \u10e0\u10d4\u10de\u10e0\u10dd\u10d3\u10e3\u10e5\u10ea\u10d8\u10e3\u10da\u10d8 \u10d9\u10da\u10d8\u10dc\u10d8\u10d9\u10d0", "name:en": "Zurab Sabakhtarashvili Reproductive Clinic", "name:ru": "\u0420\u0435\u043f\u0440\u043e\u0434\u0443\u043a\u0442\u0438\u0432\u043d\u0430\u044f \u043a\u043b\u0438\u043d\u0438\u043a\u0430 \u0417\u0443\u0440\u0430\u0431\u0430 \u0421\u0430\u0431\u0430\u0445\u0442\u0430\u0440\u0430\u0448\u0432\u0438\u043b\u0438", "website": "https://www.sabakhtarashviliclinic.ge/"}}, {"type": "node", "id": 9779353685, "lat": 41.7875225, "lon": 44.8199369, "tags": {"addr:city": "\u10d7\u10d1\u10d8\u10da\u10d8\u10e1\u10d8", "addr:housenumber": "2", "addr:street": "\u10db\u10e3\u10ee\u10d8\u10d0\u10dc\u10d8 I \u10db\u10d8\u10d9\u10e0\u10dd-\u10e0\u10d0\u10d8\u10dd\u10dc\u10d8", "amenity": "clinic", "contact:facebook": "http://www.facebook.com/klinikadada", "contact:phone": "2359819", "healthcare": "clinic", "healthcare:speciality": "general;cardiology;neurology;ophthalmology;dermatovenereology;dentist;therapist;otolaryngology", "name": "\u10d9\u10da\u10d8\u10dc\u10d8\u10d9\u10d0 '\u10d3\u10d0\u10d3\u10d0'", "name:en": "Dada", "name:ka": "\u10d3\u10d0\u10d3\u10d0", "opening_hours": "Mo-Fr 10:00-20:00; Sa, Su 11:00-17:00", "phone": "2359819"}}, {"type": "node", "id": 9804137616, "lat": 41.6873745, "lon": 44.8600484}, {"type": "node", "id": 9804147417, "lat": 41.6874797, "lon": 44.8596784}, {"type": "node", "id": 9834160060, "lat": 41.7213589, "lon": 44.760424, "tags": {"amenity": "clinic", "name": "David Vashadze Phyto-balneotherapy"}}, {"type": "node", "id": 9834198004, "lat": 41.7220554, "lon": 44.7668647, "tags": {"amenity": "clinic", "name": "Lazaris"}}, {"type": "node", "id": 9834252340, "lat": 41.7210892, "lon": 44.7581894, "tags": {"amenity": "clinic", "name": "Pipia Clinic"}}, {"type": "node", "id": 9954161548, "lat": 41.7463212, "lon": 44.7916894, "tags": {"addr:housenumber": "160", "addr:street": "\u10ea\u10dd\u10e2\u10dc\u10d4 \u10d3\u10d0\u10d3\u10d8\u10d0\u10dc\u10d8\u10e1 \u10e5\u10e3\u10e9\u10d0", "amenity": "clinic", "contact:facebook": "https://www.facebook.com/PremiumMedi/", "contact:instagram": "premiummedi", "description": "\u10db\u10e3\u10da\u10e2\u10d8\u10de\u10e0\u10dd\u10e4\u10d8\u10da\u10e3\u10e0\u10d8 \u10e1\u10d0\u10db\u10d4\u10d3\u10d8\u10ea\u10d8\u10dc\u10dd \u10ea\u10d4\u10dc\u10e2\u10e0\u10d8", "email": "premiummedgroup@gmail.com", "healthcare": "clinic", "name": "\u10de\u10e0\u10d4\u10db\u10d8\u10e3\u10db \u10db\u10d4\u10d3\u10d8", "name:en": "Premium Medi", "phone": "+995 599 56 54 80"}}, {"type": "node", "id": 9965385589, "lat": 41.7122005, "lon": 44.7578105, "tags": {"amenity": "clinic", "check_date": "2024-02-09", "healthcare": "clinic", "healthcare:speciality": "ophthalmology", "name": "\u10d0\u10ee\u10d0\u10da\u10d8 \u10db\u10d6\u10d4\u10e0\u10d0", "name:en": "Akhali Mzera", "name:ka": "\u10d0\u10ee\u10d0\u10da\u10d8 \u10db\u10d6\u10d4\u10e0\u10d0", "opening_hours": "09:00-21:00", "payment:american_express": "yes", "payment:apple_pay": "yes", "payment:cash": "yes", "payment:contactless": "yes", "payment:credit_cards": "yes", "payment:debit_cards": "yes", "payment:diners_club": "yes", "payment:discover_card": "yes", "payment:google_pay": "yes", "payment:mastercard": "yes", "payment:unionpay": "yes", "payment:visa": "yes"}}, {"type": "node", "id": 10155528618, "lat": 41.7465146, "lon": 44.7932825, "tags": {"addr:city": "\u10d7\u10d1\u10d8\u10da\u10d8\u10e1\u10d8", "addr:housenumber": "23", "addr:street": "\u10d4\u10d9\u10d0 \u10d1\u10d4\u10df\u10d0\u10dc\u10d8\u10e8\u10d5\u10d8\u10da\u10d8\u10e1 \u10e5\u10e3\u10e9\u10d0", "amenity": "clinic", "beauty": "aesthetic;skin_care;hair_removal;", "description": "\u10db\u10e0\u10d0\u10d5\u10da\u10e4\u10e3\u10dc\u10e5\u10ea\u10d8\u10e3\u10e0\u10d8 \u10d4\u10e1\u10d7\u10d4\u10e2\u10d8\u10d9\u10d8\u10e1 \u10d9\u10d0\u10d1\u10d8\u10dc\u10d4\u10e2\u10d4\u10d1\u10d4\u10d1\u10d8\n\u041c\u043d\u043e\u0433\u043e\u043f\u0440\u043e\u0444\u0438\u043b\u044c\u043d\u0430\u044f \u043a\u043b\u0438\u043d\u0438\u043a\u0430, \u0446\u0435\u043d\u0442\u0440 \u044d\u0441\u0442\u0435\u0442\u0438\u0447\u0435\u0441\u043a\u043e\u0439 \u043c\u0435\u0434\u0438\u0446\u0438\u043d\u044b, \u043a\u043e\u0441\u043c\u0435\u0442\u043e\u043b\u043e\u0433\u0438\u0447\u0435\u0441\u043a\u0438\u0435 \u0443\u0441\u043b\u0443\u0433\u0438.", "healthcare": "clinic", "healthcare:speciality": "dermatology;family_medicine;vaccination;paediatrics", "name": "\u10de\u10d8\u10e0\u10d5\u10d4\u10da\u10d8 \u10de\u10dd\u10da\u10d8\u10d9\u10da\u10d8\u10dc\u10d8\u10d9\u10d0", "name:en": "Polyclinics N1", "name:ka": "\u10de\u10d8\u10e0\u10d5\u10d4\u10da\u10d8 \u10de\u10dd\u10da\u10d8\u10d9\u10da\u10d8\u10dc\u10d8\u10d9\u10d0", "name:ru": "\u041c\u043d\u043e\u0433\u043e\u043f\u0440\u043e\u0444\u0438\u043b\u044c\u043d\u0430\u044f \u043a\u043b\u0438\u043d\u0438\u043a\u0430 \u21161", "phone": "+995592423003", "shop": "beauty", "website": "https://www.facebook.com/1polyclinic"}}, {"type": "node", "id": 10614496053, "lat": 41.7178849, "lon": 44.7816666, "tags": {"addr:housenumber": "10", "addr:street": "\u10d1\u10d4\u10e0\u10d1\u10e3\u10d9\u10d8\u10e1 \u10e5\u10e3\u10e9\u10d0", "amenity": "clinic", "check_date": "2024-01-28", "healthcare": "clinic", "name": "\u10db\u10d4\u10d3\u10d8\u10e5\u10d0\u10da \u10f0\u10d0\u10e3\u10e1\u10d8", "name:en": "Medical House", "name:ka": "\u10db\u10d4\u10d3\u10d8\u10e5\u10d0\u10da \u10f0\u10d0\u10e3\u10e1\u10d8", "opening_hours": "Mo-Fr 10:00-18:00; Sa 10:00-15:00"}}, {"type": "node", "id": 10743260160, "lat": 41.7073816, "lon": 44.7890639, "tags": {"amenity": "clinic", "check_date": "2023-10-11", "healthcare": "clinic", "name": "Elle \u10d4\u10e1\u10d7\u10d4\u10e2\u10d8\u10d9\u10e3\u10e0\u10d8 \u10d9\u10da\u10d8\u10de\u10d4\u10d1\u10d8", "name:en": "Elle's aesthetics clinic", "name:ka": "Elle \u10d4\u10e1\u10d7\u10d4\u10e2\u10d8\u10d9\u10e3\u10e0\u10d8 \u10d9\u10da\u10d8\u10de\u10d4\u10d1\u10d8", "opening_hours": "Mo off; Tu-Sa 10:00-22:00; Su 10:00-18:00", "operator:type": "private", "wheelchair": "no"}}, {"type": "node", "id": 10778452768, "lat": 41.7740453, "lon": 44.7752332}, {"type": "node", "id": 10778452773, "lat": 41.7742802, "lon": 44.7751421}, {"type": "node", "id": 10778452806, "lat": 41.7728106, "lon": 44.7756042}, {"type": "node", "id": 10778452807, "lat": 41.7727333, "lon": 44.7755677}, {"type": "node", "id": 10778452813, "lat": 41.7733657, "lon": 44.7758768}, {"type": "node", "id": 10778452814, "lat": 41.7733179, "lon": 44.7760527}, {"type": "node", "id": 10778452815, "lat": 41.7734146, "lon": 44.7756898}, {"type": "node", "id": 10778452816, "lat": 41.7733046, "lon": 44.7756363}, {"type": "node", "id": 10778452817, "lat": 41.7735069, "lon": 44.7753485}, {"type": "node", "id": 10778452818, "lat": 41.773397, "lon": 44.775295}, {"type": "node", "id": 10778452822, "lat": 41.7732149, "lon": 44.7759572}, {"type": "node", "id": 10778452826, "lat": 41.7728009, "lon": 44.7754256}, {"type": "node", "id": 10778452829, "lat": 41.7727013, "lon": 44.7753757}, {"type": "node", "id": 10778452830, "lat": 41.7727531, "lon": 44.7754017, "tags": {"entrance": "main"}}, {"type": "node", "id": 10778452831, "lat": 41.7733373, "lon": 44.7759817}, {"type": "node", "id": 10778452833, "lat": 41.7733637, "lon": 44.7759947}, {"type": "node", "id": 10778452834, "lat": 41.7733923, "lon": 44.7758899}, {"type": "node", "id": 10778452835, "lat": 41.7733791, "lon": 44.7758834, "tags": {"entrance": "main"}}, {"type": "node", "id": 10778452846, "lat": 41.7727151, "lon": 44.7766531, "tags": {"addr:city": "\u10d7\u10d1\u10d8\u10da\u10d8\u10e1\u10d8", "addr:housenumber": "2/6", "addr:postcode": "0159", "addr:street": "\u10da\u10e3\u10d1\u10da\u10d8\u10d0\u10dc\u10d0\u10e1 \u10e5\u10e3\u10e9\u10d0", "amenity": "clinic", "email": "info@invitro.ge", "healthcare": "clinic", "internet_access": "wlan", "name": "\u10d8\u10dc \u10d5\u10d8\u10e2\u10e0\u10dd \u10d9\u10da\u10d8\u10dc\u10d8\u10d9\u10d0", "name:en": "In Vitro Clinic", "opening_hours": "Mo-Sa 09:30-17:30", "phone": "+995322157777", "website": "http://www.invitro.ge"}}, {"type": "node", "id": 10781831227, "lat": 41.7255826, "lon": 44.749175, "tags": {"amenity": "clinic", "check_date": "2023-08-19", "contact:phone": "+995 32 229 06 71", "contact:website": "https://cito.ge", "description": "Center for evidence based medicine", "healthcare": "clinic", "name": "David Telia Clinic"}}, {"type": "node", "id": 10795103405, "lat": 41.6812256, "lon": 44.8241625, "tags": {"amenity": "clinic", "name:en": "Unica Polyclinic"}}, {"type": "node", "id": 10801633265, "lat": 41.7240096, "lon": 44.7151179}, {"type": "node", "id": 10801633266, "lat": 41.7240825, "lon": 44.7152071}, {"type": "node", "id": 10801633267, "lat": 41.7240605, "lon": 44.715264, "tags": {"entrance": "main"}}, {"type": "node", "id": 10805679060, "lat": 41.7013985, "lon": 44.7666487, "tags": {"addr:housenumber": "61", "addr:street": "\u10dc\u10d8\u10dc\u10dd \u10df\u10d5\u10d0\u10dc\u10d8\u10d0\u10e1 \u10e5\u10e3\u10e9\u10d0", "amenity": "clinic", "healthcare": "clinic", "healthcare:speciality": "plastic_surgery", "name": "medalpia.ge", "website": "http://medalpia.ge"}}, {"type": "node", "id": 10830791737, "lat": 41.7251398, "lon": 44.7749868, "tags": {"addr:city": "\u10d7\u10d1\u10d8\u10da\u10d8\u10e1\u10d8", "addr:country": "GE", "addr:housenumber": "14", "addr:street": "\u10df\u10d8\u10e3\u10da\u10d8 \u10e8\u10d0\u10e0\u10e2\u10d0\u10d5\u10d0\u10e1 \u10e5\u10e3\u10e9\u10d0", "amenity": "clinic", "healthcare": "clinic", "name": "Evex Express Clinic", "opening_hours": "Mo-Fr 09:00-20:00, Sa 09:00-17:00", "operator": "Evex", "phone": "0322550505", "website": "https://evex.ge/"}}, {"type": "node", "id": 10839951705, "lat": 41.7183074, "lon": 44.7808179, "tags": {"addr:city": "\u10d7\u10d1\u10d8\u10da\u10d8\u10e1\u10d8", "addr:country": "GE", "addr:housenumber": "8", "addr:street": "\u10d1\u10d4\u10e0\u10d1\u10e3\u10d9\u10d8\u10e1 \u10e5\u10e3\u10e9\u10d0", "amenity": "clinic", "check_date": "2024-01-28", "contact:facebook": "deamed.ge", "contact:instagram": "deamedclinic", "contact:linkedin": "https://www.linkedin.com/company/deamed-%E2%80%A2-%E1%83%93%E1%83%94%E1%83%90%E1%83%9B%E1%83%94%E1%83%93%E1%83%98/about/", "email": "info@deamed.ge", "facebook": "https://www.facebook.com/deamed.ge", "healthcare": "clinic", "healthcare:speciality": "\u0442\u0440\u0438\u0445\u043e\u043b\u043e\u0433\u0438\u044f;endocrinology;\u043f\u0435\u0440\u0435\u0441\u0430\u0434\u043a\u0430_\u0432\u043e\u043b\u043e\u0441;dermatology", "instagram": "https://www.instagram.com/deamedclinic/", "name": "DeaMed - \u10d7\u10db\u10d8\u10e1 \u10d2\u10d0\u10d3\u10d0\u10dc\u10d4\u10e0\u10d2\u10d5\u10d0", "name:en": "DeaMed - hair transplant", "name:ru": "\u0414\u0435\u0430\u041c\u0435\u0434 - \u043f\u0435\u0440\u0435\u0441\u0430\u0434\u043a\u0430 \u0432\u043e\u043b\u043e\u0441", "name:uk": "DeaMed - \u043f\u0435\u0440\u0435\u0441\u0430\u0434\u043a\u0430 \u0432\u043e\u043b\u043e\u0441\u0441\u044f", "opening_hours": "Mo-Fr 10:00-19:00; Sa 10:00-17:00", "phone": "+995 591 50 90 90;+995 2 25 25 20", "website": "https://deamed.ge/"}}, {"type": "node", "id": 10861135623, "lat": 41.7233369, "lon": 44.7313212}, {"type": "node", "id": 10861135624, "lat": 41.723344, "lon": 44.7313901}, {"type": "node", "id": 10861135625, "lat": 41.7233509, "lon": 44.7313888}, {"type": "node", "id": 10861135626, "lat": 41.7233438, "lon": 44.7313199}, {"type": "node", "id": 10861135627, "lat": 41.7236388, "lon": 44.7313148}, {"type": "node", "id": 10861135628, "lat": 41.7236472, "lon": 44.7313953}, {"type": "node", "id": 10861135629, "lat": 41.7236111, "lon": 44.7313199}, {"type": "node", "id": 10861135630, "lat": 41.7236195, "lon": 44.7314005}, {"type": "node", "id": 10861135631, "lat": 41.7233572, "lon": 44.7314494}, {"type": "node", "id": 10861135632, "lat": 41.7233378, "lon": 44.7312621}, {"type": "node", "id": 10861135633, "lat": 41.7236, "lon": 44.7312132}, {"type": "node", "id": 10905723902, "lat": 41.721156, "lon": 44.7161578, "tags": {"amenity": "clinic", "contact:facebook": "MarjiCardioclinic", "healthcare": "clinic", "healthcare:speciality": "cardiology", "name": "\u10db\u10d0\u10e0\u10ef\u10d8", "name:en": "Marji", "name:ka": "\u10db\u10d0\u10e0\u10ef\u10d8", "website": "http://marji.ge/"}}, {"type": "node", "id": 10906273244, "lat": 41.7300813, "lon": 44.7208162, "tags": {"amenity": "clinic", "contact:facebook": "sportsmedandbiology", "healthcare": "rehabilitation", "healthcare:speciality": "physiatry", "name": "\u10e1\u10de\u10dd\u10e0\u10e2\u10e3\u10da\u10d8 \u10db\u10d4\u10d3\u10d8\u10ea\u10d8\u10dc\u10d0 & \u10d1\u10d8\u10dd\u10da\u10dd\u10d2\u10d8\u10d0", "name:en": "Sportsmed & Biology", "name:ka": "\u10e1\u10de\u10dd\u10e0\u10e2\u10e3\u10da\u10d8 \u10db\u10d4\u10d3\u10d8\u10ea\u10d8\u10dc\u10d0 & \u10d1\u10d8\u10dd\u10da\u10dd\u10d2\u10d8\u10d0"}}, {"type": "node", "id": 10990135430, "lat": 41.7669259, "lon": 44.790313, "tags": {"addr:city": "\u10d7\u10d1\u10d8\u10da\u10d8\u10e1\u10d8", "addr:housenumber": "64", "addr:street": "\u10d3\u10d0\u10d5\u10d8\u10d7 \u10d2\u10e3\u10e0\u10d0\u10db\u10d8\u10e8\u10d5\u10d8\u10da\u10d8\u10e1 \u10d2\u10d0\u10db\u10d6\u10d8\u10e0\u10d8", "air_conditioning": "yes", "amenity": "clinic", "contact:facebook": "https://www.facebook.com/evexclinics", "healthcare": "clinic", "name": "\u10d4\u10d5\u10d4\u10e5\u10e1\u10d8", "name:en": "Evex", "name:ka": "\u10d4\u10d5\u10d4\u10e5\u10e1\u10d8", "payment:cash": "yes", "payment:contactless": "yes", "payment:credit_cards": "yes", "payment:debit_cards": "yes", "payment:mastercard": "yes", "payment:visa": "yes", "start_date": "2022", "website": "https://evexclinics.ge/"}}, {"type": "node", "id": 11070140305, "lat": 41.779428, "lon": 44.8036065, "tags": {"amenity": "clinic", "check_date": "2024-01-19", "healthcare": "clinic", "name": "\u10e3\u10da\u10e2\u10e0\u10d0\u10db\u10d4\u10d3\u10d8", "opening_hours": "Mo-Sa 10:00-17:30", "phone": "+995 557 50 77 99", "website": "https://ultramedi.ge"}}, {"type": "node", "id": 11072827005, "lat": 41.7811231, "lon": 44.7977394, "tags": {"amenity": "clinic", "name": "\u10d9\u10da\u10d8\u10dc\u10d8\u10d9\u10d0 \u10db\u10d4\u10d3\u10d4\u10d0", "name:en": "Medea Clinic"}}, {"type": "node", "id": 11097675175, "lat": 41.7507686, "lon": 44.7865656, "tags": {"addr:city": "\u10d7\u10d1\u10d8\u10da\u10d8\u10e1\u10d8", "addr:housenumber": "3", "addr:street": "\u10d7\u10dd\u10e0\u10dc\u10d8\u10d9\u10d4 \u10d4\u10e0\u10d8\u10e1\u10d7\u10d0\u10d5\u10d8\u10e1 \u10e9\u10d8\u10ee\u10d8", "amenity": "clinic", "contact:facebook": "https://www.facebook.com/meoresaojakho", "healthcare": "clinic", "name": "N2 \u10e1\u10d0\u10dd\u10ef\u10d0\u10ee\u10dd \u10db\u10d4\u10d3\u10d8\u10ea\u10d8\u10dc\u10d8\u10e1 \u10ea\u10d4\u10dc\u10e2\u10e0\u10d8", "name:en": "Family Medical Centre N2", "name:ru": "\u0421\u0435\u043c\u0435\u0439\u043d\u044b\u0439 \u041c\u0435\u0434\u0438\u0446\u0438\u043d\u0441\u043a\u0438\u0439 \u0426\u0435\u043d\u0442\u0440 \u21162"}}, {"type": "node", "id": 11112331484, "lat": 41.6797321, "lon": 44.8242955, "tags": {"addr:city": "\u10d7\u10d1\u10d8\u10da\u10d8\u10e1\u10d8", "addr:housenumber": "51-53", "addr:postcode": "0114", "addr:street": "\u10d5\u10d0\u10ee\u10e2\u10d0\u10dc\u10d2 \u10d2\u10dd\u10e0\u10d2\u10d0\u10e1\u10da\u10d8\u10e1 \u10e5\u10e3\u10e9\u10d0", "amenity": "clinic", "contact:facebook": "https://www.facebook.com/profile.php?id=100063942099623", "healthcare": "clinic", "healthcare:speciality": "ophthalmology;stomatology", "mobile": "+995 579 831100", "name": "\u10d2\u10d4\u10e0\u10db\u10d0\u10dc\u10e3\u10da\u10d8 \u10d9\u10da\u10d8\u10dc\u10d8\u10d9\u10d0", "name:en": "Germany Clinic", "name:ka": "\u10d2\u10d4\u10e0\u10db\u10d0\u10dc\u10e3\u10da\u10d8 \u10d9\u10da\u10d8\u10dc\u10d8\u10d9\u10d0", "name:ru": "\u041d\u0435\u043c\u0435\u0446\u043a\u0430\u044f \u043a\u043b\u0438\u043d\u0438\u043a\u0430", "payment:tbc_insurance": "yes", "phone": "+995 322 75 34 34"}}, {"type": "node", "id": 11112857201, "lat": 41.6912868, "lon": 44.8271632, "tags": {"alt_name": "\u10db\u10d0\u10e6\u10d0\u10da\u10d8 \u10e2\u10d4\u10e5\u10dc\u10dd\u10da\u10dd\u10d2\u10d8\u10d8\u10e1 \u10e1\u10d0\u10db\u10d4\u10d3\u10d8\u10ea\u10d8\u10dc\u10dd \u10ea\u10d4\u10dc\u10e2\u10e0\u10d8", "amenity": "clinic", "healthcare": "clinic", "name": "\u10d8\u10dc\u10d2\u10dd\u10e0\u10dd\u10e7\u10d5\u10d0\u10e1 \u10d9\u10da\u10d8\u10dc\u10d8\u10d9\u10d0", "name:en": "Ingorokva Clinic", "name:ru": "\u0418\u043d\u0433\u043e\u0440\u043e\u043a\u0432\u0430 \u041a\u043b\u0438\u043d\u0438\u043a\u0430"}}, {"type": "node", "id": 11112860910, "lat": 41.691818, "lon": 44.8277079}, {"type": "node", "id": 11112860927, "lat": 41.6911959, "lon": 44.8270892, "tags": {"amenity": "clinic", "name": "\u10dc\u10d4\u10e4\u10e0\u10dd\u10da\u10dd\u10d2\u10d8\u10d8\u10e1 \u10d2\u10d0\u10dc\u10d5\u10d8\u10d7\u10d0\u10e0\u10d4\u10d1\u10d8\u10e1 \u10d9\u10da\u10d8\u10dc\u10d8\u10d9\u10e3\u10e0\u10d8 \u10ea\u10d4\u10dc\u10e2\u10e0\u10d8", "name:en": "Nephrology Development Clinical Center", "name:ka": "\u10dc\u10d4\u10e4\u10e0\u10dd\u10da\u10dd\u10d2\u10d8\u10d8\u10e1 \u10d2\u10d0\u10dc\u10d5\u10d8\u10d7\u10d0\u10e0\u10d4\u10d1\u10d8\u10e1 \u10d9\u10da\u10d8\u10dc\u10d8\u10d9\u10e3\u10e0\u10d8 \u10ea\u10d4\u10dc\u10e2\u10e0\u10d8"}}, {"type": "node", "id": 11112860928, "lat": 41.6913666, "lon": 44.8272609, "tags": {"amenity": "clinic", "healthcare": "hospital", "healthcare:speciality": "endocrinology;surgery", "name": "\u10d4\u10dc\u10d3\u10dd\u10e5\u10d8\u10e0\u10e3\u10e0\u10d2\u10d8\u10d0", "name:en": "Endosurgery"}}, {"type": "node", "id": 11117615328, "lat": 41.7247805, "lon": 44.7950353, "tags": {"addr:city": "\u10d7\u10d1\u10d8\u10da\u10d8\u10e1\u10d8", "addr:floor": "6", "addr:housenumber": "13", "addr:street": "\u10d7\u10d4\u10d5\u10d3\u10dd\u10e0\u10d4 \u10db\u10e6\u10d5\u10d3\u10da\u10d8\u10e1 \u10e5\u10e3\u10e9\u10d0", "amenity": "clinic", "contact:mobile": "+995 577 32 72 43", "contact:phone": "+995 32 234 59 55", "description": "\u10dd\u10e2\u10dd\u10e0\u10d8\u10dc\u10dd\u10da\u10d0\u10e0\u10d8\u10dc\u10d2\u10dd\u10da\u10dd\u10d2\u10d8\u10d8\u10e1 \u10d4\u10e0\u10dd\u10d5\u10dc\u10e3\u10da\u10d8 \u10ea\u10d4\u10dc\u10e2\u10e0\u10d8", "healthcare": "clinic", "healthcare:speciality": "otolaryngology", "name": "\u10e7\u10d4\u10da \u10e7\u10e3\u10e0 \u10ea\u10ee\u10d5\u10d8\u10e0\u10d8\u10e1 \u10e1\u10dc\u10d4\u10e3\u10da\u10d4\u10d1\u10d0\u10d7\u10d0 \u10d4\u10e0\u10dd\u10d5\u10dc\u10e3\u10da\u10d8 \u10ea\u10d4\u10dc\u10e2\u10e0\u10d8 \u10ef\u10d0\u10e4\u10d0\u10e0\u10d8\u10eb\u10d4 / \u10e5\u10d4\u10d5\u10d0\u10dc\u10d8\u10e8\u10d5\u10d8\u10da\u10d8\u10e1 \u10d9\u10da\u10d8\u10dc\u10d8\u10d9\u10d0", "name:en": "Japaridze - Kevanishvili Otorhinolaryngology Clinic", "name:ka": "\u10e7\u10d4\u10da \u10e7\u10e3\u10e0 \u10ea\u10ee\u10d5\u10d8\u10e0\u10d8\u10e1 \u10e1\u10dc\u10d4\u10e3\u10da\u10d4\u10d1\u10d0\u10d7\u10d0 \u10d4\u10e0\u10dd\u10d5\u10dc\u10e3\u10da\u10d8 \u10ea\u10d4\u10dc\u10e2\u10e0\u10d8 \u10ef\u10d0\u10e4\u10d0\u10e0\u10d8\u10eb\u10d4 / \u10e5\u10d4\u10d5\u10d0\u10dc\u10d8\u10e8\u10d5\u10d8\u10da\u10d8\u10e1 \u10d9\u10da\u10d8\u10dc\u10d8\u10d9\u10d0", "opening_hours": "Mo-Fr 09:00-17:00", "website": "https://ent.com.ge"}}, {"type": "node", "id": 11117615329, "lat": 41.7245064, "lon": 44.7951385, "tags": {"addr:city": "\u10d7\u10d1\u10d8\u10da\u10d8\u10e1\u10d8", "addr:floor": "7", "addr:housenumber": "13", "addr:street": "\u10d7\u10d4\u10d5\u10d3\u10dd\u10e0\u10d4 \u10db\u10e6\u10d5\u10d3\u10da\u10d8\u10e1 \u10e5\u10e3\u10e9\u10d0", "amenity": "clinic", "healthcare": "clinic", "healthcare:speciality": "gynaecology", "name": "\u10d0\u10e0\u10e9\u10d8\u10da \u10ee\u10dd\u10db\u10d0\u10e1\u10e3\u10e0\u10d8\u10eb\u10d8\u10e1 \u10e0\u10d4\u10de\u10e0\u10dd\u10d3\u10e3\u10e5\u10e2\u10dd\u10da\u10dd\u10d2\u10d8\u10d8\u10e1 \u10d8\u10dc\u10e1\u10e2\u10d8\u10e2\u10e3\u10e2\u10d8", "name:en": "Archil Khomasuridze Institute of Reproduction", "name:ka": "\u10d0\u10e0\u10e9\u10d8\u10da \u10ee\u10dd\u10db\u10d0\u10e1\u10e3\u10e0\u10d8\u10eb\u10d8\u10e1 \u10e0\u10d4\u10de\u10e0\u10dd\u10d3\u10e3\u10e5\u10e2\u10dd\u10da\u10dd\u10d2\u10d8\u10d8\u10e1 \u10d8\u10dc\u10e1\u10e2\u10d8\u10e2\u10e3\u10e2\u10d8"}}, {"type": "node", "id": 11117615330, "lat": 41.7244535, "lon": 44.7951707, "tags": {"addr:city": "\u10d7\u10d1\u10d8\u10da\u10d8\u10e1\u10d8", "addr:housenumber": "13", "addr:street": "\u10d7\u10d4\u10d5\u10d3\u10dd\u10e0\u10d4 \u10db\u10e6\u10d5\u10d3\u10da\u10d8\u10e1 \u10e5\u10e3\u10e9\u10d0", "amenity": "clinic", "contact:facebook": "zodelavacentre", "healthcare": "clinic", "healthcare:speciality": "haematology", "name": "\u10db.\u10d6\u10dd\u10d3\u10d4\u10da\u10d0\u10d5\u10d0\u10e1 \u10f0\u10d4\u10db\u10d0\u10e2\u10dd\u10da\u10dd\u10d2\u10d8\u10e3\u10e0\u10d8 \u10ea\u10d4\u10dc\u10e2\u10e0\u10d8", "name:en": "M. Zodelava Hematology Clinic", "name:ka": "\u10db.\u10d6\u10dd\u10d3\u10d4\u10da\u10d0\u10d5\u10d0\u10e1 \u10f0\u10d4\u10db\u10d0\u10e2\u10dd\u10da\u10dd\u10d2\u10d8\u10e3\u10e0\u10d8 \u10ea\u10d4\u10dc\u10e2\u10e0\u10d8"}}, {"type": "node", "id": 11127310656, "lat": 41.726074, "lon": 44.7542147, "tags": {"amenity": "clinic", "check_date": "2023-08-19", "contact:phone": "+995 32 239 05 27", "healthcare": "clinic", "name:ka": "\u10de\u10dd\u10da\u10d8\u10d9\u10da\u10d8\u10dc\u10d8\u10d9\u10d0", "opening_hours": "Mo-Fr 10:00-19:00; Sa-Su 10:00-18:00"}}, {"type": "node", "id": 11171431430, "lat": 41.7724944, "lon": 44.7966858, "tags": {"addr:city": "\u10d7\u10d1\u10d8\u10da\u10d8\u10e1\u10d8", "addr:housenumber": "137", "addr:street": "\u10d7\u10d8\u10d0\u10dc\u10d4\u10d7\u10d8\u10e1 \u10e5\u10e3\u10e9\u10d0", "amenity": "clinic", "contact:facebook": "https://www.facebook.com/BMJCenter/", "healthcare": "clinic", "healthcare:speciality": "paediatrics", "name": "\u10d1\u10d0\u10d5\u10e8\u10d5\u10d7\u10d0 \u10d3\u10d0 \u10db\u10dd\u10d6\u10e0\u10d3\u10d8\u10da\u10d7\u10d0 \u10ef\u10d0\u10dc\u10db\u10e0\u10d7\u10d4\u10da\u10dd\u10d1\u10d8\u10e1 \u10ea\u10d4\u10dc\u10e2\u10e0\u10d8", "name:en": "Children and Adult Health Center", "name:ka": "\u10d1\u10d0\u10d5\u10e8\u10d5\u10d7\u10d0 \u10d3\u10d0 \u10db\u10dd\u10d6\u10e0\u10d3\u10d8\u10da\u10d7\u10d0 \u10ef\u10d0\u10dc\u10db\u10e0\u10d7\u10d4\u10da\u10dd\u10d1\u10d8\u10e1 \u10ea\u10d4\u10dc\u10e2\u10e0\u10d8", "payment:imedi_l": "yes", "phone": "+995 322 61 31 03"}}, {"type": "node", "id": 11183957799, "lat": 41.6868926, "lon": 44.8593986}, {"type": "node", "id": 11245172037, "lat": 41.7053011, "lon": 44.7817693, "tags": {"addr:housenumber": "51\u10d2", "addr:street": "\u10d5\u10d0\u10e1\u10d8\u10da \u10d1\u10d0\u10e0\u10dc\u10dd\u10d5\u10d8\u10e1 \u10e5\u10e3\u10e9\u10d0", "amenity": "clinic", "name": "GGRC", "name:ka": "GGRC - Georgian German reproductive center", "opening_hours": "Mo-Fr 10:00-17:00; Sa 22:00-14:00", "phone": "+995032 250 95 09", "website": "http://www.ggrc.ge/"}}, {"type": "node", "id": 11257958744, "lat": 41.7250444, "lon": 44.7702301, "tags": {"amenity": "clinic", "check_date": "2023-10-12", "healthcare": "clinic", "name": "\u10d3\u10d0\u10d5\u10d8\u10d7 \u10e2\u10d0\u10e2\u10d8\u10e8\u10d5\u10d8\u10da\u10d8\u10e1 \u10ef\u10d0\u10dc\u10db\u10e0\u10d7\u10d4\u10da\u10dd\u10d1\u10d8\u10e1 \u10ea\u10d4\u10dc\u10e2\u10e0\u10d8"}}, {"type": "node", "id": 11277903829, "lat": 41.6976225, "lon": 44.8036823, "tags": {"amenity": "clinic", "check_date": "2023-10-20", "healthcare": "clinic", "name": "\u10d4\u10d5\u10d4\u10e5\u10e1\u10d8 \u10d9\u10da\u10d8\u10dc\u10d8\u10d9\u10d0", "name:en": "Evex Clinics", "name:ka": "\u10d4\u10d5\u10d4\u10e5\u10e1\u10d8 \u10d9\u10da\u10d8\u10dc\u10d8\u10d9\u10d0"}}, {"type": "node", "id": 11288930027, "lat": 41.7116844, "lon": 44.7473421, "tags": {"amenity": "clinic", "check_date": "2023-10-25", "healthcare": "clinic", "name": "\u10db\u10e0\u10e9\u10d4\u10d5\u10d4\u10da\u10d8", "name:en": "Mrcheveli", "name:ka": "\u10db\u10e0\u10e9\u10d4\u10d5\u10d4\u10da\u10d8"}}, {"type": "node", "id": 11288930028, "lat": 41.7117808, "lon": 44.747916, "tags": {"amenity": "clinic", "check_date": "2023-10-25", "healthcare": "clinic"}}, {"type": "node", "id": 11289789372, "lat": 41.7245361, "lon": 44.7674494, "tags": {"amenity": "clinic", "health_facility:type": "clinic", "healthcare": "clinic", "name:en": "Back to life", "opening_hours": "Mo-Su 10:00-18:00", "phone": "+995 551 02 24 06"}}, {"type": "node", "id": 11291292267, "lat": 41.7250449, "lon": 44.757061, "tags": {"amenity": "clinic", "check_date": "2023-10-26", "healthcare": "clinic", "name": "\u10d0\u10d5\u10d4\u10e0\u10e1\u10d8\u10e1 \u10d9\u10da\u10d8\u10dc\u10d8\u10d9\u10d0", "name:en": "Aversi Clinic", "name:ka": "\u10d0\u10d5\u10d4\u10e0\u10e1\u10d8\u10e1 \u10d9\u10da\u10d8\u10dc\u10d8\u10d9\u10d0"}}, {"type": "node", "id": 11339018821, "lat": 41.6860021, "lon": 44.8360797, "tags": {"addr:housenumber": "44", "addr:street": "Zurab Anjaparidzes", "amenity": "clinic", "check_date": "2023-11-10", "healthcare": "clinic", "name": "\u10de\u10dd\u10da\u10d8\u10d9\u10da\u10d8\u10dc\u10d8\u10d9\u10d0 \u10d4\u10d5\u10d4\u10e5\u10e1\u10d8", "name:en": "Evex Polyclinic", "opening_hours": "Mo-Su 09:00-18:00", "website": "http://evex.ge"}}, {"type": "node", "id": 11358652537, "lat": 41.7088428, "lon": 44.7980617, "tags": {"amenity": "clinic", "check_date": "2024-09-06", "healthcare": "clinic", "name": "\u10db\u10d4\u10d3\u10d8 \u10d9\u10dd\u10db\u10e4\u10dd\u10e0\u10e2\u10d8", "name:en": "Medi Comfort", "name:ka": "\u10db\u10d4\u10d3\u10d8 \u10d9\u10dd\u10db\u10e4\u10dd\u10e0\u10e2\u10d8"}}, {"type": "node", "id": 11358681222, "lat": 41.7082099, "lon": 44.8027954, "tags": {"amenity": "clinic", "check_date": "2023-11-17", "healthcare": "clinic"}}, {"type": "node", "id": 11387752169, "lat": 41.7198949, "lon": 44.7149249, "tags": {"amenity": "clinic", "name:en": "Allergy XXI Century"}}, {"type": "node", "id": 11401282318, "lat": 41.7265584, "lon": 44.7681763, "tags": {"amenity": "clinic", "check_date": "2024-03-01", "healthcare": "clinic", "name": "\u10d2\u10d8\u10d0 \u10d2\u10d5\u10d0\u10db\u10d0\u10e0\u10d8\u10d0\u10e1 \u10d9\u10da\u10d8\u10dc\u10d8\u10d9\u10d0", "name:en": "Gia Gvamaria Clinic", "name:ka": "\u10d2\u10d8\u10d0 \u10d2\u10d5\u10d0\u10db\u10d0\u10e0\u10d8\u10d0\u10e1 \u10d9\u10da\u10d8\u10dc\u10d8\u10d9\u10d0"}}, {"type": "node", "id": 11408453835, "lat": 41.7027478, "lon": 44.7970071, "tags": {"amenity": "clinic", "name": "G Med"}}, {"type": "node", "id": 11468867817, "lat": 41.7099482, "lon": 44.7842366, "tags": {"amenity": "clinic", "check_date": "2024-07-14", "healthcare": "clinic", "name": "\u10db\u10d4\u10d3\u10d8", "name:en": "Medi", "name:ka": "\u10db\u10d4\u10d3\u10d8"}}, {"type": "node", "id": 11478634070, "lat": 41.7282973, "lon": 44.7742188, "tags": {"amenity": "clinic", "check_date": "2024-01-02", "healthcare": "clinic", "name": "\u10d4\u10da\u10d8\u10d0\u10d5\u10d0", "name:en": "Eliava", "name:ka": "\u10d4\u10da\u10d8\u10d0\u10d5\u10d0"}}, {"type": "node", "id": 11478634074, "lat": 41.7257544, "lon": 44.7765385, "tags": {"amenity": "clinic", "check_date": "2024-01-02", "healthcare": "clinic", "name": "\u10e1\u10d9\u10d4\u10dc\u10d0\u10e0 \u10d9\u10da\u10d8\u10dc\u10d8\u10d9\u10d0", "name:en": "Scenar Clinic", "name:ka": "\u10e1\u10d9\u10d4\u10dc\u10d0\u10e0 \u10d9\u10da\u10d8\u10dc\u10d8\u10d9\u10d0"}}, {"type": "node", "id": 11487202818, "lat": 41.7101925, "lon": 44.7830501, "tags": {"amenity": "clinic", "check_date": "2024-01-04", "healthcare": "clinic", "name": "\u10db\u10d4\u10d3\u10d8\u10de\u10e0\u10d8\u10d5\u10d4", "name:en": "MediPrive", "name:ka": "\u10db\u10d4\u10d3\u10d8\u10de\u10e0\u10d8\u10d5\u10d4"}}, {"type": "node", "id": 11487202836, "lat": 41.7083517, "lon": 44.7835021, "tags": {"amenity": "clinic", "check_date": "2024-01-04", "healthcare": "clinic"}}, {"type": "node", "id": 11487202839, "lat": 41.7083926, "lon": 44.7824532, "tags": {"amenity": "clinic", "check_date": "2024-01-04", "healthcare": "clinic", "name": "\u10e1\u10d8\u10d7\u10d8 \u10da\u10e3\u10e5\u10e1\u10d8", "name:en": "City Luxe", "name:ka": "\u10e1\u10d8\u10d7\u10d8 \u10da\u10e3\u10e5\u10e1\u10d8"}}, {"type": "node", "id": 11497113273, "lat": 41.707836, "lon": 44.7725996, "tags": {"amenity": "clinic", "check_date": "2024-01-07", "healthcare": "clinic", "name": "\u10d8\u10dc\u10e2\u10d4\u10e0\u10d9\u10da\u10d8\u10dc\u10d8\u10d9\u10d0", "name:en": "InterClinic", "name:ka": "\u10d8\u10dc\u10e2\u10d4\u10e0\u10d9\u10da\u10d8\u10dc\u10d8\u10d9\u10d0"}}, {"type": "node", "id": 11511474394, "lat": 41.7064532, "lon": 44.7786062, "tags": {"amenity": "clinic", "check_date": "2024-08-26", "healthcare": "clinic", "name": "\u10db\u10e0\u10e9\u10d4\u10d5\u10d4\u10da\u10d8", "name:en": "Mrcheveli", "name:ka": "\u10db\u10e0\u10e9\u10d4\u10d5\u10d4\u10da\u10d8"}}, {"type": "node", "id": 11513895413, "lat": 41.7545125, "lon": 44.7889084, "tags": {"amenity": "clinic", "check_date": "2024-01-13", "healthcare": "clinic", "opening_hours": "Mo-Fr 10:00-18:00; Sa-Su off"}}, {"type": "node", "id": 11530202214, "lat": 41.7954213, "lon": 44.8088461, "tags": {"amenity": "clinic", "check_date": "2024-01-19", "contact:phone": "+995 32 230 39 09", "healthcare": "clinic", "healthcare:speciality": "endocrinology", "name": "Institute of endocrinology", "name:ka": "\u10d4\u10dc\u10d3\u10dd\u10d9\u10e0\u10d8\u10dc\u10dd\u10da\u10dd\u10d2\u10d8\u10d8\u10e1 \u10d8\u10dc\u10e1\u10e2\u10d8\u10e2\u10e3\u10e2\u10d8", "opening_hours": "Mo-Fr 09:00-16:00; Sa 09:30-14:00; PH off", "payment:cash": "yes", "payment:mastercard": "yes", "payment:visa": "yes"}}, {"type": "node", "id": 11530226096, "lat": 41.7956063, "lon": 44.8086274, "tags": {"amenity": "clinic", "check_date": "2024-01-19", "healthcare": "clinic", "name:ka": "\u10e5\u10d0\u10da\u10d7\u10d0 \u10d9\u10da\u10d8\u10dc\u10d8\u10d9\u10d0", "payment:cash": "yes", "payment:mastercard": "yes", "payment:visa": "yes"}}, {"type": "node", "id": 11563694770, "lat": 41.72539, "lon": 44.7789966, "tags": {"amenity": "clinic", "check_date": "2024-08-20", "healthcare": "clinic", "name": "\u10d9\u10d0\u10dc\u10d8"}}, {"type": "node", "id": 11584155942, "lat": 41.706334, "lon": 44.7976612, "tags": {"amenity": "clinic", "check_date": "2024-02-04", "healthcare": "clinic"}}, {"type": "node", "id": 11584155948, "lat": 41.70709, "lon": 44.7967083, "tags": {"amenity": "clinic", "check_date": "2024-02-04", "healthcare": "clinic", "name": "\u10e0\u10d4\u10db\u10d4\u10d3\u10d8\u10ea\u10d8", "name:en": "Remedici", "name:ka": "\u10e0\u10d4\u10db\u10d4\u10d3\u10d8\u10ea\u10d8"}}, {"type": "node", "id": 11599298506, "lat": 41.7160053, "lon": 44.7815005, "tags": {"amenity": "clinic", "health_facility:type": "clinic", "healthcare": "clinic", "medical_system:western": "yes", "name": "\u10d4\u10e0\u10dd\u10d5\u10dc\u10e3\u10da\u10d8 \u10e1\u10d9\u10e0\u10d8\u10dc\u10d8\u10dc\u10d2 \u10ea\u10d4\u10dc\u10e2\u10e0\u10d8", "name:en": "National Screening Center"}}, {"type": "node", "id": 11599298508, "lat": 41.7038585, "lon": 44.8011062, "tags": {"amenity": "clinic", "health_facility:type": "rehabilitation", "healthcare": "rehabilitation", "medical_system:western": "yes", "name": "\u10dc\u10d8\u10d9\u10dd\u10da\u10dd\u10d6 \u10d9\u10d4\u10d7\u10d8\u10da\u10d0\u10eb\u10d8\u10e1 \u10e1\u10d0\u10ee\u10d4\u10da\u10dd\u10d1\u10d8\u10e1 \u10d1\u10d0\u10d5\u10e8\u10d5\u10d7\u10d0 \u10d3\u10d0 \u10db\u10dd\u10d6\u10d0\u10e0\u10d3\u10d7\u10d0 \u10e0\u10d4\u10d0\u10d1\u10d8\u10da\u10d8\u10e2\u10d0\u10ea\u10d8\u10d8\u10e1\u10d0 \u10d3\u10d0 \u10d2\u10d4\u10dc\u10d5\u10d8\u10d7\u10d0\u10e0\u10d4\u10d1\u10d8\u10e1 \u10ea\u10d4\u10dc\u10e2\u10e0\u10d8 \"\u10db\u10d6\u10d8\u10e1 \u10e1\u10d8\u10d5\u10e0\u10ea\u10d4\""}}, {"type": "node", "id": 11610237955, "lat": 41.7804429, "lon": 44.7725261, "tags": {"amenity": "clinic", "check_date": "2024-02-11", "healthcare": "clinic", "name": "\u10da\u10d8\u10d3\u10d4\u10e0\u10db\u10d4\u10d3\u10d8", "name:en": "Leadermed", "name:ka": "\u10da\u10d8\u10d3\u10d4\u10e0\u10db\u10d4\u10d3\u10d8"}}, {"type": "node", "id": 11610272928, "lat": 41.7708803, "lon": 44.7751526, "tags": {"amenity": "clinic", "check_date": "2024-02-11", "healthcare": "clinic"}}, {"type": "node", "id": 11610272945, "lat": 41.7749184, "lon": 44.7746386, "tags": {"amenity": "clinic", "check_date": "2024-02-11", "healthcare": "clinic", "name": "\u10d4\u10dc\u10db\u10d4\u10d3\u10d8\u10ea\u10d8", "name:en": "nmedic", "name:ka": "\u10d4\u10dc\u10db\u10d4\u10d3\u10d8\u10ea\u10d8"}}, {"type": "node", "id": 11610272953, "lat": 41.7735137, "lon": 44.7745705, "tags": {"amenity": "clinic", "check_date": "2024-09-20", "healthcare": "clinic", "name": "\u10d7\u10d1\u10d8\u10da\u10d8\u10e1\u10d8 \u10db\u10d4\u10d3\u10d8\u10d9", "name:en": "Tbilisi Medic", "name:ka": "\u10d7\u10d1\u10d8\u10da\u10d8\u10e1\u10d8 \u10db\u10d4\u10d3\u10d8\u10d9"}}, {"type": "node", "id": 11610272955, "lat": 41.7743334, "lon": 44.7750908, "tags": {"amenity": "clinic", "check_date": "2024-02-11", "healthcare": "clinic", "name": "\u10e1\u10e2\u10d0\u10e2\u10e3\u10e1\u10d8", "name:en": "Status", "name:ka": "\u10e1\u10e2\u10d0\u10e2\u10e3\u10e1\u10d8"}}, {"type": "node", "id": 11610272956, "lat": 41.7740607, "lon": 44.7746043, "tags": {"amenity": "clinic", "check_date": "2024-06-18", "health_facility:type": "rehabilitation", "healthcare": "rehabilitation", "medical_system:western": "yes", "name": "\u10e1\u10d8\u10d7\u10d8 \u10e4\u10d8\u10d6\u10d8\u10dd", "name:en": "City Physio", "name:ka": "\u10e1\u10d8\u10d7\u10d8 \u10e4\u10d8\u10d6\u10d8\u10dd", "operator:type": "private", "payment:cash": "yes", "payment:credit_cards": "yes", "payment:debit_cards": "yes"}}, {"type": "node", "id": 11610272961, "lat": 41.7736368, "lon": 44.7750541, "tags": {"amenity": "clinic", "check_date": "2024-09-20", "healthcare": "clinic", "healthcare:speciality": "neurology", "name": "\u10d5\u10d0\u10da\u10d4\u10dd", "name:en": "Valeo", "name:ka": "\u10d5\u10d0\u10da\u10d4\u10dd"}}, {"type": "node", "id": 11629925369, "lat": 41.7753909, "lon": 44.7761015, "tags": {"amenity": "clinic", "name": "\u10d3\u10d8\u10d0\u10d9\u10dd\u10e0\u10d8", "name:en": "Diacor"}}, {"type": "node", "id": 11704259338, "lat": 41.7068169, "lon": 44.7670605, "tags": {"amenity": "clinic", "check_date": "2024-03-08", "healthcare": "clinic"}}, {"type": "node", "id": 11704813612, "lat": 41.7071412, "lon": 44.7667296, "tags": {"amenity": "clinic", "check_date": "2024-03-08", "contact:phone": "+995 32 250 00 20", "description": "American Medical Centers is a health services provider network offering personalized US and European standard evidenced-based care and functional medicine. Founded in 1991, AMC clinics currently operate in Ukraine, Georgia, and Kazakhstan.", "email": "tbilisi@amcenters.com", "health_facility:type": "clinic", "healthcare": "clinic", "internet_access": "wlan", "name": "\u10d0\u10db\u10d4\u10e0\u10d8\u10d9\u10e3\u10da\u10d8 \u10e1\u10d0\u10db\u10d4\u10d3\u10d8\u10ea\u10d8\u10dc\u10dd \u10ea\u10d4\u10dc\u10e2\u10e0\u10d8", "name:en": "American Medical Centers Tbilisi", "name:ka": "\u10d0\u10db\u10d4\u10e0\u10d8\u10d9\u10e3\u10da\u10d8 \u10e1\u10d0\u10db\u10d4\u10d3\u10d8\u10ea\u10d8\u10dc\u10dd \u10ea\u10d4\u10dc\u10e2\u10e0\u10d8", "opening_hours": "Mo-Fr 09:00-18:00; Sa-Su 10:00-15:00", "website": "https://www.amcenters.com/"}}, {"type": "node", "id": 11734563764, "lat": 41.7142402, "lon": 44.780858, "tags": {"amenity": "clinic", "check_date": "2024-03-15", "healthcare": "clinic", "name": "\u10d2\u10d8\u10d0 \u10d2\u10d5\u10d0\u10e0\u10d0\u10db\u10d8\u10d0\u10e1 \u10d9\u10da\u10d8\u10dc\u10d8\u10d9\u10d0"}}, {"type": "node", "id": 11734602200, "lat": 41.7189624, "lon": 44.7806132, "tags": {"amenity": "clinic", "check_date": "2024-03-15", "healthcare": "clinic", "name": "\u10ea\u10d8\u10e3\u10e0\u10d8\u10ee\u10d8\u10e1 \u10e1\u10d0\u10db\u10d4\u10d3\u10d8\u10ea\u10d8\u10dc\u10dd \u10d9\u10d5\u10da\u10d4\u10d5\u10d8\u10d7\u10d8 \u10ea\u10d4\u10dc\u10e2\u10e0\u10d8", "name:en": "Zurich Medical Research Center"}}, {"type": "node", "id": 11767259159, "lat": 41.7363619, "lon": 44.7379602, "tags": {"amenity": "clinic", "healthcare": "clinic", "name:en": "Cell Technology and Therapy Center", "name:ru": "\u0426\u0435\u043d\u0442\u0440 \u043a\u043b\u0435\u0442\u043e\u0447\u043d\u044b\u0445 \u0442\u0435\u0445\u043d\u043e\u043b\u043e\u0433\u0438\u0439 \u0438 \u0442\u0435\u0440\u0430\u043f\u0438\u0438 (\u041c\u0435\u0434\u0438\u0446\u0438\u043d\u0441\u043a\u0438\u0439 \u0446\u0435\u043d\u0442\u0440 \u041c\u0430\u0440\u0434\u0430\u043b\u0435\u0438\u0448\u0432\u0438\u043b\u0438)", "name:uk": "\u0426\u0435\u043d\u0442\u0440 \u043a\u043b\u0456\u0442\u0438\u043d\u043d\u0438\u0445 \u0442\u0435\u0445\u043d\u043e\u043b\u043e\u0433\u0456\u0439 \u0442\u0430 \u0442\u0435\u0440\u0430\u043f\u0456\u0457 (\u041c\u0435\u0434\u0438\u0447\u043d\u0438\u0439 \u0446\u0435\u043d\u0442\u0440 \u041c\u0430\u0440\u0434\u0430\u043b\u0435\u0439\u0448\u0432\u0456\u043b\u0456)"}}, {"type": "node", "id": 11772061221, "lat": 41.7133661, "lon": 44.7603023, "tags": {"amenity": "clinic", "check_date": "2024-03-29", "healthcare": "clinic", "name": "\u10d2\u10da\u10dd\u10d1\u10d0\u10da\u10db\u10d4\u10d3\u10d8"}}, {"type": "node", "id": 11804738240, "lat": 41.7195956, "lon": 44.789652, "tags": {"amenity": "clinic", "check_date": "2024-04-09", "healthcare": "clinic"}}, {"type": "node", "id": 11812131174, "lat": 41.7343449, "lon": 44.7839567, "tags": {"amenity": "clinic", "check_date": "2024-07-31", "healthcare": "clinic", "name:en": "National Screening Center"}}, {"type": "node", "id": 11816640419, "lat": 41.696388, "lon": 44.8602078, "tags": {"amenity": "clinic", "check_date": "2024-04-14", "healthcare": "clinic", "name": "\u10de\u10dd\u10da\u10d8\u10d9\u10da\u10d8\u10dc\u10d8\u10d9\u10d0 \u10d4\u10d5\u10d4\u10e5\u10e1\u10d8"}}, {"type": "node", "id": 11836610770, "lat": 41.7103392, "lon": 44.7646933, "tags": {"amenity": "clinic", "name:en": "Venus Georgia"}}, {"type": "node", "id": 11854323776, "lat": 41.7006301, "lon": 44.8085214, "tags": {"amenity": "clinic", "check_date": "2024-04-27", "healthcare": "clinic", "name": "\u10db\u10d9\u10e3\u10e0\u10dc\u10d0\u10da\u10d8"}}, {"type": "node", "id": 11916019222, "lat": 41.6973647, "lon": 44.800416, "tags": {"amenity": "clinic", "check_date": "2024-05-18", "healthcare": "clinic", "name": "\u10dd\u10e0\u10e1\u10db\u10d4\u10d3\u10d8"}}, {"type": "node", "id": 12043974423, "lat": 41.7446514, "lon": 44.7790487, "tags": {"amenity": "clinic", "check_date": "2024-07-09", "healthcare": "clinic", "name": "\u10ef\u10d0\u10dc\u10db\u10e0\u10d7\u10d4\u10da\u10d8 \u10db\u10dd\u10db\u10d0\u10d5\u10d0\u10da\u10d8", "name:en": "Healthy Future", "name:ka": "\u10ef\u10d0\u10dc\u10db\u10e0\u10d7\u10d4\u10da\u10d8 \u10db\u10dd\u10db\u10d0\u10d5\u10d0\u10da\u10d8"}}, {"type": "node", "id": 12059218246, "lat": 41.7557916, "lon": 44.7755427, "tags": {"amenity": "clinic", "check_date": "2025-04-04", "healthcare": "clinic", "name": "\u10db\u10d4\u10d3\u10d8\u10d9\u10d0\u10da \u10d2\u10e0\u10e3\u10de\u10d8"}}, {"type": "node", "id": 12059218260, "lat": 41.7564689, "lon": 44.7750179, "tags": {"amenity": "clinic", "check_date": "2025-04-04", "healthcare": "clinic", "name": "\u10db\u10d4\u10d3\u10d8", "name:en": "Medi", "name:ka": "\u10db\u10d4\u10d3\u10d8"}}, {"type": "node", "id": 12161674983, "lat": 41.7268039, "lon": 44.7990419, "tags": {"amenity": "clinic", "check_date": "2024-09-07", "healthcare": "clinic", "name": "\u10de\u10dd\u10da\u10d8\u10d9\u10da\u10d8\u10dc\u10d8\u10d9\u10d0 #2"}}, {"type": "node", "id": 12168378249, "lat": 41.7615989, "lon": 44.7741715, "tags": {"amenity": "clinic", "check_date": "2024-09-10", "healthcare": "clinic", "name": "\u10e1\u10d8\u10da\u10d9", "name:en": "Silk", "name:ka": "\u10e1\u10d8\u10da\u10d9"}}, {"type": "node", "id": 12188498069, "lat": 41.7707405, "lon": 44.7751548, "tags": {"amenity": "clinic", "check_date": "2024-09-20", "healthcare": "clinic", "name:en": "Center of Molecular Diagnostics"}}, {"type": "node", "id": 12188498079, "lat": 41.7727843, "lon": 44.7746309, "tags": {"amenity": "clinic", "check_date": "2024-09-20", "healthcare": "clinic", "name": "4 \u10f0\u10dd\u10e1\u10de\u10d8\u10e2\u10d0\u10da\u10e1", "name:en": "4 Hospitals", "name:ka": "4 \u10f0\u10dd\u10e1\u10de\u10d8\u10e2\u10d0\u10da\u10e1"}}, {"type": "node", "id": 12304575676, "lat": 41.6872617, "lon": 44.8603146}, {"type": "node", "id": 12304575677, "lat": 41.6870589, "lon": 44.8600933}, {"type": "node", "id": 12304575678, "lat": 41.6870594, "lon": 44.8600403}, {"type": "node", "id": 12304575679, "lat": 41.6867674, "lon": 44.8598894}, {"type": "node", "id": 12425650849, "lat": 41.7900249, "lon": 44.8127577, "tags": {"amenity": "clinic", "check_date": "2024-08-17", "name": "\u10d7\u10d1\u10d8\u10da\u10d8\u10e1\u10d8\u10e1 #2 \u10e4\u10d8\u10da\u10e2\u10d5\u10d8\u10e1 \u10d3\u10d0\u10d0\u10d5\u10d0\u10d3\u10d4\u10d1\u10d0\u10d7\u10d0 \u10d0\u10db\u10d1\u10e3\u10da\u10d0\u10e2\u10dd\u10e0\u10d8\u10e3\u10da\u10d8 \u10d9\u10da\u10d8\u10dc\u10d8\u10d9\u10d0"}}, {"type": "node", "id": 12425650856, "lat": 41.7929086, "lon": 44.8135315, "tags": {"amenity": "clinic", "check_date": "2023-08-29", "name": "\u10db\u10e0\u10e9\u10d4\u10d5\u10d4\u10da\u10d8"}}, {"type": "node", "id": 12430923868, "lat": 41.7119639, "lon": 44.7424008, "tags": {"amenity": "clinic", "contact:facebook": "chaika.tbilisi", "contact:instagram": "chaika.tbilisi", "healthcare": "clinic", "name": "Chaika", "name:ka": "\u10e9\u10d0\u10d8\u10d9\u10d0", "name:ru": "\u0427\u0430\u0439\u043a\u0430", "opening_hours": "Mo-Su 10:00-20:00", "phone": "+995599869911", "website": "https://chaika.ge"}}, {"type": "node", "id": 12524347452, "lat": 41.6895083, "lon": 44.8292086}, {"type": "node", "id": 12524347453, "lat": 41.6899971, "lon": 44.8288507}, {"type": "node", "id": 12524347454, "lat": 41.689508, "lon": 44.8288513}, {"type": "node", "id": 12524368373, "lat": 41.6918119, "lon": 44.8286122}, {"type": "node", "id": 12524368374, "lat": 41.6917288, "lon": 44.8290695}, {"type": "node", "id": 12524368375, "lat": 41.6916347, "lon": 44.829319}, {"type": "node", "id": 12524368376, "lat": 41.6914774, "lon": 44.8293807}, {"type": "node", "id": 12524368377, "lat": 41.6914624, "lon": 44.8292519}, {"type": "node", "id": 12524368378, "lat": 41.691186, "lon": 44.8291768}, {"type": "node", "id": 12524368379, "lat": 41.691208, "lon": 44.8290803}, {"type": "node", "id": 12524368380, "lat": 41.6912691, "lon": 44.8290816}, {"type": "node", "id": 12524368381, "lat": 41.6913452, "lon": 44.8284955}, {"type": "node", "id": 12524368383, "lat": 41.6907043, "lon": 44.8292526}, {"type": "node", "id": 12524368384, "lat": 41.6907093, "lon": 44.8298179}, {"type": "node", "id": 12524368385, "lat": 41.6901109, "lon": 44.8301183}, {"type": "node", "id": 12524368386, "lat": 41.6901219, "lon": 44.8292526}, {"type": "node", "id": 12673659057, "lat": 41.727203, "lon": 44.7987328, "tags": {"amenity": "clinic", "check_date": "2025-03-29", "healthcare": "clinic", "name": "\u10db\u10d4\u10d3\u10f0\u10d4\u10da\u10e1\u10d8", "name:en": "Medhealth", "name:ka": "\u10db\u10d4\u10d3\u10f0\u10d4\u10da\u10e1\u10d8"}}, {"type": "node", "id": 12682234960, "lat": 41.7285571, "lon": 44.8001253, "tags": {"amenity": "clinic", "check_date": "2025-03-19", "healthcare": "clinic"}}, {"type": "node", "id": 12682234973, "lat": 41.7291385, "lon": 44.7987056, "tags": {"amenity": "clinic", "check_date": "2025-03-19", "healthcare": "clinic", "name": "\u10db\u10d9\u10e3\u10e0\u10dc\u10d0\u10da\u10d8"}}, {"type": "node", "id": 12710267782, "lat": 41.7161685, "lon": 44.7971472, "tags": {"amenity": "clinic", "health_facility:type": "clinic", "health_specialty:dermatology": "main", "health_specialty:venereology": "main", "healthcare": "clinic", "medical_system:western": "yes", "name": "\u10d9\u10d0\u10dc\u10d8\u10e1\u10d0 \u10d3\u10d0 \u10d5\u10d4\u10dc\u10d4\u10e0\u10d8\u10e3\u10da \u10d3\u10d0\u10d0\u10d5\u10d0\u10d3\u10d4\u10d1\u10d0\u10d7\u10d0 \u10d3\u10d8\u10e1\u10de\u10d0\u10dc\u10e1\u10d4\u10e0\u10d8"}}, {"type": "node", "id": 12725753651, "lat": 41.7008714, "lon": 44.8512968}, {"type": "node", "id": 12725753652, "lat": 41.7008408, "lon": 44.8513258}, {"type": "node", "id": 12725753653, "lat": 41.7017119, "lon": 44.8510181}, {"type": "node", "id": 12725753654, "lat": 41.7011328, "lon": 44.8518045}, {"type": "node", "id": 12725753655, "lat": 41.7017275, "lon": 44.8511562}, {"type": "node", "id": 12725753656, "lat": 41.7017275, "lon": 44.8510891}, {"type": "node", "id": 12725753657, "lat": 41.7015817, "lon": 44.8507948}, {"type": "node", "id": 12725963496, "lat": 41.7455729, "lon": 44.7724064, "tags": {"amenity": "clinic", "check_date": "2025-04-03", "healthcare": "clinic", "name": "\u10d0\u10ee\u10d0\u10da\u10d8 \u10dc\u10d0\u10d1\u10d8\u10ef\u10d8"}}, {"type": "node", "id": 12728720062, "lat": 41.7462467, "lon": 44.7734649, "tags": {"amenity": "clinic", "check_date": "2025-04-04", "healthcare": "clinic", "name": "J.I. Aesthetic", "name:en": "J.I. Aesthetic"}}, {"type": "node", "id": 12734054731, "lat": 41.7210358, "lon": 44.7342324, "tags": {"amenity": "clinic", "check_date": "2025-04-06", "healthcare": "clinic", "name": "\u10d3\u10d8\u10d0\u10d1\u10d4\u10e2\u10d8\u10d0\u10dc \u10d1\u10d0\u10d5\u10e8\u10d5\u10d7\u10d0 \u10ea\u10d4\u10dc\u10e2\u10e0\u10d8"}}, {"type": "node", "id": 12734054742, "lat": 41.7212368, "lon": 44.7337286, "tags": {"amenity": "clinic", "check_date": "2025-04-06", "healthcare": "clinic"}}, {"type": "way", "id": 34146446, "nodes": [391580349, 391580382, 10801633265, 10801633266, 10801633267, 391580384, 391580386, 391580349], "tags": {"addr:city": "\u10d7\u10d1\u10d8\u10da\u10d8\u10e1\u10d8", "addr:housenumber": "6", "addr:street": "\u10d6\u10e3\u10e0\u10d0\u10d1 \u10d0\u10dc\u10ef\u10d0\u10e4\u10d0\u10e0\u10d8\u10eb\u10d8\u10e1 II \u10e8\u10d4\u10e1\u10d0\u10ee\u10d5\u10d4\u10d5\u10d8", "amenity": "clinic", "building": "yes", "building:levels": "4", "healthcare": "clinic", "name": "Innova Medical Center", "name:ka": "\u10d8\u10dc\u10dd\u10d5\u10d0"}}, {"type": "way", "id": 61651838, "nodes": [768584539, 768584540, 10778452807, 10778452806, 768584541, 768584542, 10778452826, 10778452830, 10778452829, 768584539], "tags": {"amenity": "clinic", "building": "hospital", "check_date": "2024-02-11", "healthcare": "clinic", "name": "\u10d3\u10d0\u10d5\u10d8\u10d7 \u10d3\u10d0\u10d5\u10d0\u10e0\u10d0\u10e8\u10d5\u10d8\u10da\u10d8\u10e1 \u10d9\u10da\u10d8\u10dc\u10d8\u10d9\u10d0", "name:en": "David Davarashvili Clinic", "website": "https://ddc.ge/"}}, {"type": "way", "id": 190556277, "nodes": [2012043873, 2012043225, 2012043859, 2012043574, 2012043233, 2012043228, 2012043513, 2012043236, 2012043141, 2012043770, 2012043263, 2012043632, 2012043873], "tags": {"amenity": "clinic", "building": "yes", "building:levels": "4", "healthcare": "clinic"}}, {"type": "way", "id": 224228683, "nodes": [4132513490, 2330506515, 2330506440, 4132513491, 4132513490], "tags": {"addr:housenumber": "40", "addr:street": "\u10d6\u10d0\u10e5\u10d0\u10e0\u10d8\u10d0 \u10e4\u10d0\u10da\u10d8\u10d0\u10e8\u10d5\u10d8\u10da\u10d8\u10e1 \u10e5\u10e3\u10e9\u10d0", "amenity": "clinic", "building": "yes", "email": "info@cito.ge", "name": "Cito", "opening_hours": "Mo-Fr 09:00-18:00", "phone": "0322290671", "website": "https://www.cito.ge/"}}, {"type": "way", "id": 466006040, "nodes": [4609004647, 7888681818, 4609004646, 4609004645, 4609004644, 4609004643, 4609004636, 4609004635, 4609004634, 4609004633, 10778452768, 4609004620, 4609004631, 4609004630, 4609004629, 4609004628, 4609004627, 4609004626, 4609004625, 4609004624, 4609004623, 10778452773, 4609004647], "tags": {"addr:city": "\u10d7\u10d1\u10d8\u10da\u10d8\u10e1\u10d8", "addr:housenumber": "7", "addr:postcode": "0159", "addr:street": "\u10ed\u10d8\u10d0\u10e3\u10e0\u10d4\u10da\u10d8\u10e1 \u10e5\u10e3\u10e9\u10d0", "amenity": "clinic", "building": "yes", "building:levels": "3", "check_date": "2024-02-11", "health_facility:type": "clinic", "health_specialty:ophthalmology": "main", "health_specialty:optometry": "main", "healthcare": "clinic", "healthcare:speciality": "ophthalmology", "medical_system:western": "yes", "name": "\u10ef\u10d0\u10d5\u10e0\u10d8\u10e8\u10d5\u10d8\u10da\u10d8\u10e1 \u10d9\u10da\u10d8\u10dc\u10d8\u10d9\u10d0 \"\u10dd\u10e4\u10d7\u10d0\u10da\u10db\u10d8\u10ef\u10d8\"", "name:en": "Javrishvili Eye Clinic \"Oftalmij\"", "name:ka": "\u10ef\u10d0\u10d5\u10e0\u10d8\u10e8\u10d5\u10d8\u10da\u10d8\u10e1 \u10d9\u10da\u10d8\u10dc\u10d8\u10d9\u10d0 \"\u10dd\u10e4\u10d7\u10d0\u10da\u10db\u10d8\u10ef\u10d8\"", "name:ru": "\u041a\u043b\u0438\u043d\u0438\u043a\u0430 \u0433\u043b\u0430\u0437\u043d\u043e\u0439 \u043c\u0438\u043a\u0440\u043e\u0445\u0438\u0440\u0443\u0440\u0433\u0438\u0438 \"\u041e\u0444\u0442\u0430\u043b\u044c\u043c\u0438\u0434\u0436\" \u0438\u043c. \u0414\u0436\u0430\u0432\u0440\u0438\u0448\u0432\u0438\u043b\u0438", "provided_for:female": "yes", "provided_for:male": "yes", "website": "http://oftalmij.com/"}}, {"type": "way", "id": 478568527, "nodes": [4718071935, 4718071934, 4718071933, 4718071932, 4718071931, 4718071930, 4718071929, 4718071928, 4718071927, 4718071926, 4718071925, 11112860910, 4718071935], "tags": {"addr:city": "\u10d7\u10d1\u10d8\u10da\u10d8\u10e1\u10d8", "addr:housenumber": "9-17", "addr:street": "\u10ec\u10d8\u10dc\u10d0\u10dc\u10d3\u10da\u10d8\u10e1 \u10e5\u10e3\u10e9\u10d0", "amenity": "clinic", "building": "hospital", "healthcare": "clinic", "healthcare:speciality": "otolaryngology", "name": "\u10d1\u10dd\u10e0\u10d8\u10e1 \u10e7\u10d8\u10e4\u10d8\u10d0\u10dc\u10d8\u10e1 \u10e1\u10d0\u10ee\u10d4\u10da\u10dd\u10d1\u10d8\u10e1 \u10e7\u10d4\u10da-\u10e7\u10e3\u10e0-\u10ea\u10ee\u10d5\u10d8\u10e0\u10d8\u10e1 \u10d9\u10da\u10d8\u10dc\u10d8\u10d9\u10d0", "name:en": "Ear, Nose and Throat Clinic named after Boris Kifiani", "name:ka": "\u10d1\u10dd\u10e0\u10d8\u10e1 \u10e7\u10d8\u10e4\u10d8\u10d0\u10dc\u10d8\u10e1 \u10e1\u10d0\u10ee\u10d4\u10da\u10dd\u10d1\u10d8\u10e1 \u10e7\u10d4\u10da-\u10e7\u10e3\u10e0-\u10ea\u10ee\u10d5\u10d8\u10e0\u10d8\u10e1 \u10d9\u10da\u10d8\u10dc\u10d8\u10d9\u10d0"}}, {"type": "way", "id": 696087251, "nodes": [6536506682, 6536506683, 6536506684, 6536531585, 6536506682], "tags": {"addr:city": "\u10d7\u10d1\u10d8\u10da\u10d8\u10e1\u10d8", "addr:housenumber": "76", "addr:postcode": "0182", "addr:street": "\u10ef\u10d0\u10d5\u10d0\u10ee\u10d4\u10d7\u10d8\u10e1 \u10e5\u10e3\u10e9\u10d0", "air_conditioning": "yes", "amenity": "clinic", "branch": "\u10d4\u10d5\u10d4\u10e5\u10e1\u10d8", "brand:en": "Evex", "brand:ka": "\u10d4\u10d5\u10d4\u10e5\u10e1\u10d8", "building": "yes", "check_date": "2024-03-24", "healthcare": "clinic", "healthcare:speciality": "general;stomatology;vaccination;orthodontics", "inception": "2015", "name": "\u10d4\u10d5\u10d4\u10e5\u10e1\u10d8\u10d8\u10e1 \u10d0\u10db\u10d1\u10e3\u10da\u10d0\u10e2\u10dd\u10e0\u10d8\u10e3\u10da\u10d8 \u10ea\u10d4\u10dc\u10e2\u10e0\u10d8", "name:en": "Evex outpatient center", "name:ka": "\u10d4\u10d5\u10d4\u10e5\u10e1\u10d8\u10d8\u10e1 \u10d0\u10db\u10d1\u10e3\u10da\u10d0\u10e2\u10dd\u10e0\u10d8\u10e3\u10da\u10d8 \u10ea\u10d4\u10dc\u10e2\u10e0\u10d8", "name:ru": "\u0410\u043c\u0431\u0443\u043b\u0430\u0442\u043e\u0440\u043d\u044b\u0439 \u0446\u0435\u043d\u0442\u0440 Evex", "old_addr:housenumber": "30", "opening_hours": "Mo-Fr 09:00-18:00; Sa 09:00-14:00", "operator": "\u10d4\u10d5\u10d4\u10e5\u10e1\u10d8", "operator:type": "private", "website": "https://evex.ge/ka/network/varketilis-poliklinika/84", "wikidata": "Q120667982"}}, {"type": "way", "id": 827825767, "nodes": [7728278591, 7728278592, 7728278593, 7728278594, 7728278595, 7728278596, 7728278597, 7728278598, 7728278591], "tags": {"addr:housenumber": "70\u10d0", "addr:housenumber2": "70A", "addr:street": "\u10d0\u10d9\u10d0\u10d9\u10d8 \u10d1\u10d4\u10da\u10d8\u10d0\u10e8\u10d5\u10d8\u10da\u10d8\u10e1 \u10e5\u10e3\u10e9\u10d0", "addr:street:en": "Akaki Beliashvili Street", "amenity": "clinic", "building": "yes", "healthcare": "clinic"}}, {"type": "way", "id": 1042722321, "nodes": [6307909653, 12725753657, 12725753653, 12725753656, 12725753655, 12725753654, 12725753652, 12725753651, 6307909653], "tags": {"amenity": "clinic", "healthcare": "clinic"}}, {"type": "way", "id": 1159032596, "nodes": [10778452814, 10778452831, 10778452833, 10778452834, 10778452835, 10778452813, 10778452815, 10778452816, 10778452822, 768584548, 10778452814], "tags": {"amenity": "clinic", "building": "yes", "health_facility:type": "clinic", "health_specialty:neurology": "main", "healthcare": "clinic", "healthcare:speciality": "neurology", "medical_system:western": "yes", "name": "\u10d8. \u10d1\u10dd\u10d9\u10d4\u10e0\u10d8\u10d0\u10e1 \u10e1\u10d0\u10ee\u10d4\u10da\u10dd\u10d1\u10d8\u10e1 \u10dc\u10d4\u10d8\u10e0\u10dd\u10d2\u10d0\u10dc\u10d5\u10d8\u10d7\u10d0\u10e0\u10d4\u10d1\u10d8\u10e1 \u10ea\u10d4\u10dc\u10e2\u10e0\u10d8", "name:en": "I. Bokeria Neurodevelopment Center", "name:ka": "\u10d8. \u10d1\u10dd\u10d9\u10d4\u10e0\u10d8\u10d0\u10e1 \u10e1\u10d0\u10ee\u10d4\u10da\u10dd\u10d1\u10d8\u10e1 \u10dc\u10d4\u10d8\u10e0\u10dd\u10d2\u10d0\u10dc\u10d5\u10d8\u10d7\u10d0\u10e0\u10d4\u10d1\u10d8\u10e1 \u10ea\u10d4\u10dc\u10e2\u10e0\u10d8", "name:ru": "\u0426\u0435\u043d\u0442\u0440 \u043d\u0435\u0439\u0440\u043e\u0440\u0430\u0437\u0432\u0438\u0442\u0438\u044f \u0438\u043c\u0435\u043d\u0438 \u0418. \u0411\u043e\u043a\u0435\u0440\u0438\u044f"}}, {"type": "way", "id": 1159032597, "nodes": [10778452815, 10778452817, 10778452818, 10778452816, 10778452815], "tags": {"amenity": "clinic", "building": "yes", "healthcare": "clinic"}}, {"type": "way", "id": 1167819452, "nodes": [10861135625, 10861135624, 10861135623, 10861135626, 10861135632, 10861135633, 10861135629, 10861135627, 10861135628, 10861135630, 10861135631, 10861135625], "tags": {"addr:city": "\u10d7\u10d1\u10d8\u10da\u10d8\u10e1\u10d8", "addr:housenumber": "76\u10d1", "addr:street": "\u10d5\u10d0\u10df\u10d0-\u10e4\u10e8\u10d0\u10d5\u10d4\u10da\u10d0\u10e1 \u10d2\u10d0\u10db\u10d6\u10d8\u10e0\u10d8", "amenity": "clinic", "building": "yes", "building:levels": "5", "check_date": "2023-09-24", "contact:facebook": "https://www.facebook.com/DTMCenter", "description": "\u10db\u10d4\u10d3 \u10d8\u10dc\u10d5\u10d4\u10e1\u10e2\u10db\u10d4\u10dc\u10e2\u10d8 - \u10d5\u10d0\u10df\u10d0-\u10e4\u10e8\u10d0\u10d5\u10d4\u10da\u10d0\u10e1 \u10e4\u10d8\u10da\u10d8\u10d0\u10da\u10d8 \u10e8\u10de\u10e1\nMed Investment - Vazha Phshaveli Branch LLC", "healthcare": "clinic", "healthcare:speciality": "diagnostic_radiology;general;neurology", "name": "\u10d3\u10d0\u10d5\u10d8\u10d7 \u10e2\u10d0\u10e2\u10d8\u10e8\u10d5\u10d8\u10da\u10d8\u10e1 \u10e1\u10d0\u10db\u10d4\u10d3\u10d8\u10ea\u10d8\u10dc\u10dd \u10ea\u10d4\u10dc\u10e2\u10e0\u10d8 \u10e1\u10d0\u10d1\u10e3\u10e0\u10d7\u10d0\u10da\u10dd\u10e1 \u10e4\u10d8\u10da\u10d8\u10d0\u10da\u10d8", "name:en": "David Tatishvili Medical Center, Saburtalo Branch", "name:ka": "\u10d3\u10d0\u10d5\u10d8\u10d7 \u10e2\u10d0\u10e2\u10d8\u10e8\u10d5\u10d8\u10da\u10d8\u10e1 \u10e1\u10d0\u10db\u10d4\u10d3\u10d8\u10ea\u10d8\u10dc\u10dd \u10ea\u10d4\u10dc\u10e2\u10e0\u10d8 \u10e1\u10d0\u10d1\u10e3\u10e0\u10d7\u10d0\u10da\u10dd\u10e1 \u10e4\u10d8\u10da\u10d8\u10d0\u10da\u10d8", "name:ru": "\u041c\u0435\u0434\u0438\u0446\u0438\u043d\u0441\u043a\u0438\u0439 \u0446\u0435\u043d\u0442\u0440 \u0414\u0430\u0432\u0438\u0434\u0430 \u0422\u0430\u0442\u0438\u0448\u0432\u0438\u043b\u0438, \u0444\u0438\u043b\u0438\u0430\u043b \u0421\u0430\u0431\u0443\u0440\u0442\u0430\u043b\u043e", "operator": "\u10db\u10d4\u10d3 \u10d8\u10dc\u10d5\u10d4\u10e1\u10e2\u10db\u10d4\u10dc\u10e2\u10d8 - \u10d5\u10d0\u10df\u10d0-\u10e4\u10e8\u10d0\u10d5\u10d4\u10da\u10d0\u10e1 \u10e4\u10d8\u10da\u10d8\u10d0\u10da\u10d8 \u10e8\u10de\u10e1", "operator:type": "private", "phone": "+995 322 80 08 19"}}, {"type": "way", "id": 1206963671, "nodes": [9804137616, 9804147417, 11183957799, 12304575679, 12304575678, 12304575677, 12304575676, 9804137616], "tags": {"addr:housenumber": "21", "addr:street": "\u10dc\u10dd\u10d4 \u10e0\u10d0\u10db\u10d8\u10e8\u10d5\u10d8\u10da\u10d8\u10e1 \u10e5\u10e3\u10e9\u10d0", "amenity": "clinic", "contact:email": "samgorimedi1@gmail.com", "contact:phone": "+995 32 278 67 77", "contact:website": "http://samgorimedi.ge", "name": "\u10e1\u10d0\u10db\u10d2\u10dd\u10e0\u10d8 \u10db\u10d4\u10d3\u10d8", "name:en": "Samgori medi", "name:ka": "\u10e1\u10d0\u10db\u10d2\u10dd\u10e0\u10d8 \u10db\u10d4\u10d3\u10d8"}}, {"type": "way", "id": 1353494074, "nodes": [12524368381, 12524368380, 12524368379, 12524368378, 12524368377, 12524368376, 12524368375, 12524368374, 12524368373, 12524368381], "tags": {"amenity": "clinic", "healthcare": "yes", "name": "\u10d8\u10dd\u10d0\u10dc\u10d4 \u10db\u10dd\u10ec\u10e7\u10d0\u10da\u10d4\u10e1 \u10e1\u10d0\u10ee\u10d4\u10da\u10dd\u10d1\u10d8\u10e1 \u10de\u10e0\u10d8\u10d5\u10d0\u10e2 \u10d9\u10da\u10d8\u10dc\u10d8\u10d9\u10d0", "name:en": "St. John the Merciful Private Clinic", "name:ka": "\u10d8\u10dd\u10d0\u10dc\u10d4 \u10db\u10dd\u10ec\u10e7\u10d0\u10da\u10d4\u10e1 \u10e1\u10d0\u10ee\u10d4\u10da\u10dd\u10d1\u10d8\u10e1 \u10de\u10e0\u10d8\u10d5\u10d0\u10e2 \u10d9\u10da\u10d8\u10dc\u10d8\u10d9\u10d0"}}, {"type": "way", "id": 1353494075, "nodes": [12524368386, 12524368385, 12524368384, 12524368383, 12524368386], "tags": {"amenity": "clinic", "contact:facebook": "https://www.facebook.com/enmedic/", "healthcare": "clinic", "name": "\u10d4\u10dc\u10db\u10d4\u10d3\u10d8\u10ea\u10d8", "name:en": "Enmedic", "name:ka": "\u10d4\u10dc\u10db\u10d4\u10d3\u10d8\u10ea\u10d8", "name:ru": "\u042d\u043d\u043c\u0435\u0434\u0438\u043a", "operator": "enmedic", "website": "https://enmedic.ge/"}}, {"type": "way", "id": 1353494460, "nodes": [12524347453, 2323016634, 12524347452, 12524347454, 12524347453], "tags": {"addr:city": "\u10d7\u10d1\u10d8\u10da\u10d8\u10e1\u10d8", "addr:housenumber": "9", "addr:street": "\u10ec\u10d8\u10dc\u10d0\u10dc\u10d3\u10da\u10d8\u10e1 \u10e5\u10e3\u10e9\u10d0", "amenity": "clinic", "contact:facebook": "https://www.facebook.com/chichuamedicalcentermzera", "contact:phone": "+995 32 277 55 88", "healthcare": "clinic", "healthcare:speciality": "ophthalmology;endocrinology;gynaecology", "mobile": "+995 555 56 55 88", "name": "\u10e9\u10d8\u10e9\u10e3\u10d4\u10d1\u10d8\u10e1 \u10d9\u10da\u10d8\u10dc\u10d8\u10d9\u10d0 \u10db\u10d6\u10d4\u10e0\u10d0", "name:en": "Chichua Medical Clinic Mzera", "name:ka": "\u10e9\u10d8\u10e9\u10e3\u10d4\u10d1\u10d8\u10e1 \u10d9\u10da\u10d8\u10dc\u10d8\u10d9\u10d0 \u10db\u10d6\u10d4\u10e0\u10d0", "name:ru": "\u041e\u0444\u0442\u0430\u043b\u044c\u043c\u043e\u043b\u043e\u0433\u0438\u0447\u0435\u0441\u043a\u0430\u044f \u043a\u043b\u0438\u043d\u0438\u043a\u0430 \u0427\u0438\u0447\u0443\u0430 \u041c\u0437\u0435\u0440\u0430", "payment:imedi_l": "yes", "payment:tbc_insurance": "yes"}}]}